{"type":"FeatureCollection","features":[{"type":"Feature","properties":{"name":"Balneário Gaivota"},"geometry":{"type":"MultiPolygon","coordinates":[[[[-49.5639569,-29.0583494],[-49.5684719,-29.0594229],[-49.5694997,-29.0597095],[-49.5713045,-29.0602127],[-49.5725287,-29.0610939],[-49.5728993,-29.061594],[-49.5736604,-29.0626209],[-49.5743901,-29.0641507],[-49.5748877,-29.0651939],[-49.575352,-29.0665997],[-49.576229,-29.0679038],[-49.5776373,-29.069256],[-49.5803206,-29.0713743],[-49.582377,-29.0734435],[-49.5827341,-29.0738028],[-49.5845296,-29.075159],[-49.5879529,-29.0766415],[-49.5905223,-29.077315],[-49.5930144,-29.077947],[-49.5940486,-29.0783823],[-49.5956796,-29.079397],[-49.5962141,-29.0795762],[-49.5963381,-29.0798003],[-49.5963925,-29.0800841],[-49.5964356,-29.080614],[-49.5964067,-29.0812537],[-49.5964601,-29.0816085],[-49.5964724,-29.0816303],[-49.5965324,-29.0817362],[-49.5967432,-29.0819194],[-49.5970386,-29.0820483],[-49.5971357,-29.0821107],[-49.5972688,-29.082213],[-49.5973821,-29.0823312],[-49.5974247,-29.0824193],[-49.5974187,-29.082763],[-49.5973938,-29.0828773],[-49.597366,-29.0829154],[-49.5972251,-29.0830135],[-49.5970809,-29.0830612]]],[[[-49.5970809,-29.0830612],[-49.5965564,-29.0831755],[-49.5963726,-29.0832606],[-49.5960517,-29.083359],[-49.5959342,-29.0834519],[-49.5958103,-29.0836119],[-49.595735,-29.0837907],[-49.595808,-29.0842463],[-49.5958759,-29.0843204],[-49.596012,-29.0843836],[-49.5961482,-29.0844149],[-49.5962358,-29.0844158],[-49.5964121,-29.0843768],[-49.5966315,-29.0842636],[-49.5967156,-29.0842649],[-49.5968064,-29.0843088],[-49.5968461,-29.084338],[-49.5969889,-29.0845143],[-49.5970717,-29.0845833],[-49.597157,-29.0847071],[-49.59718,-29.0847717],[-49.5971867,-29.0850518],[-49.5972138,-29.0851352],[-49.5973097,-29.0852655],[-49.5974035,-29.0853576],[-49.5975314,-29.0854172],[-49.5975915,-29.0854679],[-49.5976227,-29.0855385],[-49.5976261,-29.0856961],[-49.5975851,-29.0858683],[-49.5973788,-29.0862859],[-49.5974224,-29.0871237],[-49.5974893,-29.0874113],[-49.597659,-29.0878124],[-49.5978813,-29.0882773],[-49.5983462,-29.0893651],[-49.5985683,-29.0899895],[-49.5990431,-29.0914521],[-49.5992766,-29.0920502],[-49.599769,-29.0934573],[-49.6011438,-29.0975235],[-49.6018415,-29.0994152],[-49.6019983,-29.1000044],[-49.6024186,-29.1010768],[-49.6030996,-29.1031045],[-49.6033274,-29.1037074],[-49.6042117,-29.1063558],[-49.6043986,-29.1068642],[-49.6046416,-29.1074086],[-49.6052381,-29.1086074],[-49.60588,-29.1095198],[-49.6065939,-29.1106145],[-49.606904,-29.1110499],[-49.6073272,-29.1116027],[-49.6075989,-29.1119937],[-49.6079111,-29.1123924],[-49.6083057,-29.112967],[-49.6083998,-29.1130848],[-49.6086323,-29.1132872],[-49.6093344,-29.1142917],[-49.6096544,-29.1146563],[-49.6097974,-29.114789],[-49.6113419,-29.1159614],[-49.6115266,-29.1160865],[-49.61185,-29.1162566],[-49.6119902,-29.116428],[-49.612291,-29.1166707],[-49.6132694,-29.1174008],[-49.6150171,-29.1186343],[-49.6155431,-29.1190899],[-49.6168128,-29.1203228],[-49.6174599,-29.1209775],[-49.6181678,-29.1216484],[-49.618459,-29.1219513],[-49.6196121,-29.1230384],[-49.6199388,-29.1234011],[-49.620622,-29.1240454],[-49.6208751,-29.1243163],[-49.6211699,-29.1245511],[-49.6216036,-29.1250008],[-49.6216468,-29.1250747],[-49.6220345,-29.1254231],[-49.6224325,-29.1257787],[-49.622849,-29.1261716],[-49.6238364,-29.1272309],[-49.6242024,-29.1275442],[-49.625,-29.1283376],[-49.6251918,-29.1284964],[-49.625742,-29.1290619],[-49.626267,-29.1295704],[-49.6271936,-29.1304297],[-49.6277168,-29.1309581],[-49.6287566,-29.1319023],[-49.6288594,-29.1320005],[-49.6289452,-29.132081],[-49.6290663,-29.132183]]],[[[-49.6290663,-29.132183],[-49.6292297,-29.1325126],[-49.6293579,-29.1329223],[-49.6293581,-29.1331285],[-49.6293297,-29.133211],[-49.6292762,-29.1332647],[-49.6290637,-29.13326],[-49.628986,-29.1333136],[-49.6288264,-29.1336128],[-49.6286966,-29.1337894],[-49.6285899,-29.1340538],[-49.6285812,-29.1342475],[-49.6286002,-29.1343343],[-49.6286698,-29.1344818],[-49.6287871,-29.1346111],[-49.6289316,-29.1347014],[-49.6290411,-29.1348378],[-49.6293837,-29.1349122],[-49.6294955,-29.1349648],[-49.6296126,-29.1350394],[-49.6297876,-29.1352081],[-49.6301317,-29.1354386],[-49.6303518,-29.1354956],[-49.6305296,-29.1355193],[-49.6308483,-29.1355157],[-49.6318441,-29.1355705],[-49.6333811,-29.1359496],[-49.636537,-29.1372996],[-49.6383367,-29.137701],[-49.6403242,-29.1381444],[-49.6458299,-29.1389045],[-49.6521316,-29.140435],[-49.6563339,-29.1430349]]],[[[-49.6563339,-29.1430349],[-49.657781,-29.1439301],[-49.6639776,-29.1495851],[-49.6714715,-29.1559863],[-49.6760651,-29.1604329],[-49.6810964,-29.1633708],[-49.6875,-29.1666667],[-49.6876166,-29.1668111],[-49.6892113,-29.1687877],[-49.69496,-29.1759116],[-49.6968038,-29.1803676],[-49.6980025,-29.1832643],[-49.6981253,-29.183763],[-49.700072,-29.1916693],[-49.7042781,-29.1990094],[-49.705805,-29.2011801],[-49.7081848,-29.2032441],[-49.7130537,-29.2066575]]],[[[-49.6921237,-29.2205799],[-49.6925547,-29.2202544],[-49.692774,-29.2200723],[-49.693176,-29.219783],[-49.6936851,-29.2194611],[-49.6941134,-29.2189825],[-49.6942602,-29.2187938],[-49.6949638,-29.2180428],[-49.6953832,-29.2175076],[-49.6954745,-29.2173255],[-49.6957126,-29.2166781],[-49.695804,-29.2165414],[-49.6959158,-29.2164322],[-49.6961041,-29.2163485],[-49.6965301,-29.2163126],[-49.6966683,-29.2163225],[-49.6967566,-29.2163091],[-49.6969,-29.2162645],[-49.6971918,-29.2161396],[-49.7009154,-29.21414],[-49.7012904,-29.2139194],[-49.7020248,-29.2134064],[-49.7035517,-29.2124308],[-49.7039923,-29.2122001],[-49.706005,-29.2110638],[-49.7064399,-29.2108007],[-49.7075336,-29.2102061],[-49.7130537,-29.2066575]]],[[[-49.6845293,-29.2256589],[-49.6854086,-29.2250114],[-49.6871928,-29.2237111],[-49.687652,-29.2233955],[-49.6886322,-29.2227691],[-49.6890282,-29.2225651],[-49.6895272,-29.2223684],[-49.6900299,-29.2220019],[-49.691198,-29.2211928],[-49.6919533,-29.2206925]]],[[[-49.6629766,-29.2415924],[-49.6680123,-29.2378501],[-49.6725276,-29.2344944],[-49.6845293,-29.2256589]]],[[[-49.6448429,-29.2376357],[-49.645875,-29.2369516],[-49.6463658,-29.2366263],[-49.650496,-29.2338873],[-49.6532268,-29.232079],[-49.657601,-29.238121]]],[[[-49.6443441,-29.2379662],[-49.6435368,-29.2370915],[-49.6417129,-29.2347229],[-49.6399373,-29.232621],[-49.6367615,-29.2289228]]],[[[-49.6367615,-29.2289228],[-49.635973,-29.2280333],[-49.6345621,-29.2265212],[-49.6340257,-29.2259126],[-49.6334249,-29.2252806],[-49.6325867,-29.2244265],[-49.6322447,-29.2238808],[-49.6319124,-29.2233848],[-49.6308392,-29.2224482],[-49.6299648,-29.2212216],[-49.6294296,-29.2205909],[-49.6288759,-29.2197937],[-49.6283394,-29.2190633],[-49.6274436,-29.2182159],[-49.6267569,-29.2173357],[-49.6259576,-29.2162588],[-49.6255338,-29.2158562],[-49.6253461,-29.2156829],[-49.6251959,-29.2155191],[-49.6250618,-29.2153973],[-49.6249706,-29.215285]]],[[[-49.6249706,-29.215285],[-49.6227551,-29.212869],[-49.6220738,-29.2120871],[-49.621709,-29.2117078],[-49.6211779,-29.2110992],[-49.6208775,-29.2107714],[-49.6205771,-29.2104624],[-49.620105,-29.2098771],[-49.6192038,-29.2087908],[-49.6189785,-29.2084958],[-49.6187103,-29.2081634],[-49.6184957,-29.207859],[-49.6180505,-29.2073627],[-49.6174872,-29.2067633],[-49.6173155,-29.2065667],[-49.6169239,-29.2061125],[-49.6159155,-29.2049085],[-49.6158886,-29.2048763],[-49.6144348,-29.2032702],[-49.6135444,-29.2022728],[-49.6125841,-29.2011911],[-49.6122804,-29.2008153],[-49.6112323,-29.1995615]]],[[[-49.6112323,-29.1995615],[-49.6109265,-29.1992548],[-49.6101326,-29.1982691],[-49.6089739,-29.1969251],[-49.6071768,-29.1949583],[-49.6065921,-29.1943027],[-49.6062005,-29.193811],[-49.6058142,-29.1933567],[-49.6050096,-29.1924482],[-49.6040386,-29.1913945],[-49.6028033,-29.1898678]]],[[[-49.6028033,-29.1898678],[-49.602735,-29.1897835],[-49.6011579,-29.1878938],[-49.6003479,-29.1870157],[-49.5995539,-29.1861259],[-49.5993072,-29.1858964],[-49.598878,-29.1854093],[-49.5986152,-29.1850815],[-49.598347,-29.1847583],[-49.5981959,-29.1844664]]],[[[-49.5981959,-29.1844664],[-49.5969837,-29.1831584],[-49.5958203,-29.181967],[-49.5944202,-29.1804542],[-49.5930603,-29.1789344],[-49.5919311,-29.1777564],[-49.5910996,-29.1769321],[-49.5901984,-29.175925],[-49.5890772,-29.1746604],[-49.5872051,-29.1726252]]],[[[-49.5872051,-29.1726252],[-49.5867437,-29.1721779],[-49.5862395,-29.1716299],[-49.585864,-29.1711709],[-49.5845068,-29.1696626],[-49.5820928,-29.1670816],[-49.5805854,-29.1653672],[-49.578976,-29.1635871],[-49.576959,-29.161348],[-49.5755643,-29.1599379],[-49.5740676,-29.1584061],[-49.5730215,-29.1574879],[-49.5714605,-29.1558342],[-49.5703018,-29.154588],[-49.5696205,-29.1538057],[-49.5687622,-29.1527797],[-49.5676357,-29.1515616],[-49.5664501,-29.1501702]]],[[[-49.5664501,-29.1501702],[-49.5653558,-29.1489099],[-49.5648247,-29.1484343],[-49.5641381,-29.1476731],[-49.5626038,-29.1460122],[-49.5609731,-29.144281],[-49.5602006,-29.1434329],[-49.558205,-29.1412308],[-49.5564133,-29.1392817],[-49.5546162,-29.1372856],[-49.5539993,-29.136639],[-49.5532858,-29.1359362],[-49.5521915,-29.1349381],[-49.5509201,-29.1336121],[-49.5495468,-29.1321923],[-49.5483667,-29.130913],[-49.547798,-29.1303086]]],[[[-49.547798,-29.1303086],[-49.5468271,-29.1293105],[-49.5452768,-29.12775],[-49.5435816,-29.1259318],[-49.5424283,-29.1248962],[-49.5414466,-29.1238699],[-49.5396334,-29.1220142],[-49.5383835,-29.1206927],[-49.5374876,-29.1197273],[-49.5368654,-29.1190243],[-49.5362485,-29.118326],[-49.5354706,-29.1174122],[-49.5352453,-29.1171778]]],[[[-49.5352453,-29.1171778],[-49.533931,-29.1157016],[-49.5311584,-29.1123631],[-49.5301238,-29.1111416],[-49.5290494,-29.1099791],[-49.5280753,-29.1089425],[-49.5275659,-29.1083427],[-49.5269181,-29.1077186],[-49.5259294,-29.1064145]]],[[[-49.5259294,-29.1064145],[-49.5247467,-29.1050781],[-49.5233721,-29.103622],[-49.5215489,-29.1017009],[-49.520713,-29.1008922]]],[[[-49.520713,-29.1008922],[-49.5192554,-29.0994227],[-49.517842,-29.0980093],[-49.5162124,-29.0963546],[-49.5131862,-29.0933395]]],[[[-49.5138778,-29.0928012],[-49.5162885,-29.0910013],[-49.5223606,-29.0864674],[-49.5239627,-29.0852711],[-49.5264458,-29.0835998]]]]}}]}