{"type":"FeatureCollection","features":[{"type":"Feature","properties":{"name":"Centro"},"geometry":{"type":"Polygon","coordinates":[[[-51.01943749622286,-27.637346],[-51.00605989691177,-27.59317199807417],[-51.05685900540009,-27.56742299249458],[-51.059506577395744,-27.57303851544782],[-51.06480484779015,-27.637346],[-51.01943749622286,-27.637346]]]}},{"type":"Feature","properties":{"name":"Arroio Bonito"},"geometry":{"type":"Polygon","coordinates":[[[-51.15395185,-27.5509208],[-51.15395185,-27.601803081632916],[-51.059506577395744,-27.57303851544782],[-51.05685900540009,-27.56742299249458],[-51.05692328773791,-27.5509208],[-51.15395185,-27.5509208]]]}},{"type":"Feature","properties":{"name":"Santo Antonio"},"geometry":{"type":"Polygon","coordinates":[[[-50.95975265,-27.637346],[-50.95975265,-27.60315448769008],[-51.00605989691177,-27.59317199807417],[-51.01943749622286,-27.637346],[-50.95975265,-27.637346]]]}},{"type":"Feature","properties":{"name":"Santa Catarina"},"geometry":{"type":"Polygon","coordinates":[[[-51.15395185,-27.637346],[-51.06480484779015,-27.637346],[-51.059506577395744,-27.57303851544782],[-51.15395185,-27.601803081632916],[-51.15395185,-27.637346]]]}},{"type":"Feature","properties":{"name":"Sao Roque"},"geometry":{"type":"Polygon","coordinates":[[[-50.95975265,-27.5509208],[-51.05692328773791,-27.5509208],[-51.05685900540009,-27.56742299249458],[-51.00605989691177,-27.59317199807417],[-50.95975265,-27.60315448769008],[-50.95975265,-27.5509208]]]}}]}