{"type":"FeatureCollection","features":[{"type":"Feature","properties":{"name":"Assentamento Nova Aurora Dorinha"},"geometry":{"type":"Polygon","coordinates":[[[-52.3470565,-26.5532701],[-52.3470565,-26.617167300000002],[-52.32993717864156,-26.617167300000002],[-52.2868270277977,-26.5532701],[-52.3470565,-26.5532701]]]}},{"type":"Feature","properties":{"name":"Araca"},"geometry":{"type":"Polygon","coordinates":[[[-52.2868270277977,-26.5532701],[-52.32993717864156,-26.617167300000002],[-52.2697077,-26.617167300000002],[-52.2697077,-26.5532701],[-52.2868270277977,-26.5532701]]]}}]}