{"type":"FeatureCollection","features":[{"type":"Feature","properties":{"name":"Centro"},"geometry":{"type":"Polygon","coordinates":[[[-49.67399755,-27.232902669999998],[-49.77401915,-27.232902669999998],[-49.77401915,-27.24699440760074],[-49.70070235993294,-27.294357666154596],[-49.67399755,-27.28693790798124],[-49.67399755,-27.232902669999998]]]}},{"type":"Feature","properties":{"name":"Mosquito Grande"},"geometry":{"type":"Polygon","coordinates":[[[-49.77401915,-27.39518603],[-49.6846018039393,-27.39518603],[-49.72206117763964,-27.342556330878157],[-49.77401915,-27.367667894903168],[-49.77401915,-27.39518603]]]}},{"type":"Feature","properties":{"name":"Valada Gropp"},"geometry":{"type":"Polygon","coordinates":[[[-49.77401915,-27.310231806652],[-49.72605219203265,-27.331666702391527],[-49.70070235993294,-27.294357666154596],[-49.77401915,-27.24699440760074],[-49.77401915,-27.310231806652]]]}},{"type":"Feature","properties":{"name":"Morro Do Carvao"},"geometry":{"type":"Polygon","coordinates":[[[-49.67399755,-27.39518603],[-49.67399755,-27.28693790798124],[-49.70070235993294,-27.294357666154596],[-49.72605219203265,-27.331666702391527],[-49.72206117763964,-27.342556330878157],[-49.6846018039393,-27.39518603],[-49.67399755,-27.39518603]]]}},{"type":"Feature","properties":{"name":"Alto Gropp"},"geometry":{"type":"Polygon","coordinates":[[[-49.77401915,-27.367667894903168],[-49.72206117763964,-27.342556330878157],[-49.72605219203265,-27.331666702391527],[-49.77401915,-27.310231806652],[-49.77401915,-27.367667894903168]]]}}]}