{"type":"FeatureCollection","features":[{"type":"Feature","properties":{"name":"Linha Volta Grande"},"geometry":{"type":"Polygon","coordinates":[[[-51.87224504,-27.38901795569164],[-51.96833656,-27.448096444308366],[-51.96833656,-27.50121037],[-51.87224504,-27.50121037],[-51.87224504,-27.38901795569164]]]}},{"type":"Feature","properties":{"name":"Centro"},"geometry":{"type":"Polygon","coordinates":[[[-51.87224504,-27.32088253],[-51.96833656,-27.32088253],[-51.96833656,-27.362202470972672],[-51.87224504,-27.362214625144233],[-51.87224504,-27.32088253]]]}},{"type":"Feature","properties":{"name":"Linha Araraquara"},"geometry":{"type":"Polygon","coordinates":[[[-51.96833656,-27.448096444308366],[-51.87224504,-27.38901795569164],[-51.87224504,-27.362214625144233],[-51.96833656,-27.362202470972672],[-51.96833656,-27.448096444308366]]]}}]}