{"type":"FeatureCollection","features":[{"type":"Feature","properties":{"name":"Centro"},"geometry":{"type":"Polygon","coordinates":[[[-47.02780609999999,-27.913344929999997],[-47.02780609999999,-26.21934157],[-50.73198498880561,-26.21934157],[-51.04723929595514,-27.657972142321572],[-51.10119578001445,-27.913344929999997],[-47.02780609999999,-27.913344929999997]]]}},{"type":"Feature","properties":{"name":"Linha Salete"},"geometry":{"type":"Polygon","coordinates":[[[-53.35232619836614,-26.549033521182743],[-53.38385514350823,-26.57285826003098],[-53.61859844866848,-27.913344929999997],[-51.10119578001445,-27.913344929999997],[-51.04723929595514,-27.657972142321572],[-53.35232619836614,-26.549033521182743]]]}},{"type":"Feature","properties":{"name":"Sao Paulo"},"geometry":{"type":"Polygon","coordinates":[[[-53.382405798441425,-26.21934157],[-53.35232619836614,-26.549033521182743],[-51.04723929595514,-27.657972142321572],[-50.73198498880561,-26.21934157],[-53.382405798441425,-26.21934157]]]}},{"type":"Feature","properties":{"name":"Linha Sao Roque"},"geometry":{"type":"Polygon","coordinates":[[[-53.546262194228156,-26.21934157],[-53.38385514350823,-26.57285826003098],[-53.35232619836614,-26.549033521182743],[-53.382405798441425,-26.21934157],[-53.546262194228156,-26.21934157]]]}},{"type":"Feature","properties":{"name":"Linha Prateleira"},"geometry":{"type":"Polygon","coordinates":[[[-54.8893181,-26.21934157],[-54.8893181,-27.913344929999997],[-53.61859844866848,-27.913344929999997],[-53.38385514350823,-26.57285826003098],[-53.546262194228156,-26.21934157],[-54.8893181,-26.21934157]]]}}]}