{"type":"FeatureCollection","features":[{"type":"Feature","properties":{"name":"Fartura"},"geometry":{"type":"Polygon","coordinates":[[[-48.961103730000005,-27.60156665],[-48.961103730000005,-27.501057050000004],[-48.97599171184794,-27.501057050000004],[-49.01935085,-27.55131185],[-49.062709988152065,-27.60156665],[-48.961103730000005,-27.60156665]]]}},{"type":"Feature","properties":{"name":"Garcia"},"geometry":{"type":"Polygon","coordinates":[[[-49.07759797,-27.501057050000004],[-49.07759797,-27.60156665],[-49.062709988152065,-27.60156665],[-49.01935085,-27.55131185],[-48.97599171184794,-27.501057050000004],[-49.07759797,-27.501057050000004]]]}}]}