{"type":"FeatureCollection","features":[{"type":"Feature","properties":{"name":"Centro"},"geometry":{"type":"Polygon","coordinates":[[[-51.813763699999996,-25.90176497],[-51.813763699999996,-28.09772673],[-49.32903599739075,-28.09772673],[-50.65117025375366,-25.90176497],[-51.813763699999996,-25.90176497]]]}},{"type":"Feature","properties":{"name":"Borges"},"geometry":{"type":"Polygon","coordinates":[[[-50.65117025375366,-25.90176497],[-49.32903599739075,-28.09772673],[-48.1664421,-28.09772673],[-48.1664421,-25.90176497],[-50.65117025375366,-25.90176497]]]}}]}