{"type":"FeatureCollection","features":[{"type":"Feature","properties":{"name":"Rio Da Prata"},"geometry":{"type":"Polygon","coordinates":[[[-49.05771541,-27.735284649999997],[-49.230863346258744,-27.735284649999997],[-49.15916095371175,-27.85899279060925],[-49.05771541,-27.80816370270638],[-49.05771541,-27.735284649999997]]]}},{"type":"Feature","properties":{"name":"Varginha"},"geometry":{"type":"Polygon","coordinates":[[[-49.26276709,-28.056819849999997],[-49.05771541,-28.056819849999997],[-49.05771541,-27.946371622297903],[-49.17794252212704,-27.92681667632758],[-49.26276709,-27.98806507693797],[-49.26276709,-28.056819849999997]]]}},{"type":"Feature","properties":{"name":"Rio Do Meio"},"geometry":{"type":"Polygon","coordinates":[[[-49.26276709,-27.735284649999997],[-49.26276709,-27.98806507693797],[-49.17794252212704,-27.92681667632758],[-49.15916095371175,-27.85899279060925],[-49.230863346258744,-27.735284649999997],[-49.26276709,-27.735284649999997]]]}},{"type":"Feature","properties":{"name":"Rio Dos Pinheiros"},"geometry":{"type":"Polygon","coordinates":[[[-49.05771541,-27.80816370270638],[-49.15916095371175,-27.85899279060925],[-49.17794252212704,-27.92681667632758],[-49.05771541,-27.946371622297903],[-49.05771541,-27.80816370270638]]]}}]}