{"type":"FeatureCollection","features":[{"type":"Feature","properties":{"name":"Centro"},"geometry":{"type":"Polygon","coordinates":[[[-48.7502767,-27.5357551],[-48.7502767,-27.47136833231919],[-48.778729975836505,-27.49267748333842],[-48.77963825479564,-27.5357551],[-48.7502767,-27.5357551]]]}},{"type":"Feature","properties":{"name":"Santa Maria"},"geometry":{"type":"Polygon","coordinates":[[[-48.8178539,-27.5357551],[-48.77963825479564,-27.5357551],[-48.778729975836505,-27.49267748333842],[-48.8178539,-27.501705720374865],[-48.8178539,-27.5357551]]]}},{"type":"Feature","properties":{"name":"Rachadel"},"geometry":{"type":"Polygon","coordinates":[[[-48.7502767,-27.4575913],[-48.8178539,-27.4575913],[-48.8178539,-27.501705720374865],[-48.778729975836505,-27.49267748333842],[-48.7502767,-27.47136833231919],[-48.7502767,-27.4575913]]]}}]}