{"type":"FeatureCollection","features":[{"type":"Feature","properties":{"name":"Vargem Grande"},"geometry":{"type":"Polygon","coordinates":[[[-49.32288500000001,-27.000873409999997],[-49.368098640244575,-27.000873409999997],[-49.38406154221254,-27.09832053419048],[-49.35645011559881,-27.127160591321157],[-49.32288500000001,-27.13065613673434],[-49.32288500000001,-27.000873409999997]]]}},{"type":"Feature","properties":{"name":"Santa Rosa"},"geometry":{"type":"Polygon","coordinates":[[[-49.474059399999994,-27.24476989],[-49.32288500000001,-27.24476989],[-49.32288500000001,-27.13065613673434],[-49.35645011559881,-27.127160591321157],[-49.443088743471904,-27.204989882719694],[-49.474059399999994,-27.239616888093895],[-49.474059399999994,-27.24476989]]]}},{"type":"Feature","properties":{"name":"Subida"},"geometry":{"type":"Polygon","coordinates":[[[-49.474059399999994,-27.239616888093895],[-49.443088743471904,-27.204989882719694],[-49.43380682093124,-27.081660184179647],[-49.474059399999994,-27.059683633247406],[-49.474059399999994,-27.239616888093895]]]}},{"type":"Feature","properties":{"name":"Centro"},"geometry":{"type":"Polygon","coordinates":[[[-49.474059399999994,-27.000873409999997],[-49.474059399999994,-27.059683633247406],[-49.43380682093124,-27.081660184179647],[-49.38406154221254,-27.09832053419048],[-49.368098640244575,-27.000873409999997],[-49.474059399999994,-27.000873409999997]]]}},{"type":"Feature","properties":{"name":"Santo Antonio"},"geometry":{"type":"Polygon","coordinates":[[[-49.43380682093124,-27.081660184179647],[-49.443088743471904,-27.204989882719694],[-49.35645011559881,-27.127160591321157],[-49.38406154221254,-27.09832053419048],[-49.43380682093124,-27.081660184179647]]]}}]}