{"type":"FeatureCollection","features":[{"type":"Feature","properties":{"name":"Lajeado Guaraipo"},"geometry":{"type":"Polygon","coordinates":[[[-52.125386389999996,-27.168481],[-52.125386389999996,-27.0947194],[-52.19706779718399,-27.0947194],[-52.15149490535259,-27.168481],[-52.125386389999996,-27.168481]]]}},{"type":"Feature","properties":{"name":"Nova Estrela"},"geometry":{"type":"Polygon","coordinates":[[[-52.15149490535259,-27.168481],[-52.19706779718399,-27.0947194],[-52.22317631,-27.0947194],[-52.22317631,-27.168481],[-52.15149490535259,-27.168481]]]}}]}