{"type":"FeatureCollection","features":[{"type":"Feature","properties":{"name":"Corveta"},"geometry":{"type":"Polygon","coordinates":[[[-48.7815689,-26.514760149333494],[-48.76998510855716,-26.510589348239073],[-48.703857141371856,-26.46446050078514],[-48.7815689,-26.426052951815585],[-48.7815689,-26.514760149333494]]]}},{"type":"Feature","properties":{"name":"Itinga"},"geometry":{"type":"Polygon","coordinates":[[[-48.6969488,-26.385190599999998],[-48.7815689,-26.385190599999998],[-48.7815689,-26.426052951815585],[-48.703857141371856,-26.46446050078514],[-48.6969488,-26.462182503979943],[-48.6969488,-26.385190599999998]]]}},{"type":"Feature","properties":{"name":"Itapocu"},"geometry":{"type":"Polygon","coordinates":[[[-48.7815689,-26.5878658],[-48.6969488,-26.5878658],[-48.6969488,-26.550735324525792],[-48.76998510855716,-26.510589348239073],[-48.7815689,-26.514760149333494],[-48.7815689,-26.5878658]]]}},{"type":"Feature","properties":{"name":"Rainha"},"geometry":{"type":"Polygon","coordinates":[[[-48.6969488,-26.462182503979943],[-48.703857141371856,-26.46446050078514],[-48.76998510855716,-26.510589348239073],[-48.6969488,-26.550735324525792],[-48.6969488,-26.462182503979943]]]}}]}