{"type":"FeatureCollection","features":[{"type":"Feature","properties":{"name":"Jardim Das Avenidas"},"geometry":{"type":"Polygon","coordinates":[[[-49.470631487562706,-28.942964679443016],[-49.471141472016086,-28.961816587360886],[-49.43235029013469,-29.05700142],[-49.36985316642616,-29.05700142],[-49.41252423482672,-28.93693793302357],[-49.470631487562706,-28.942964679443016]]]}},{"type":"Feature","properties":{"name":"Centro"},"geometry":{"type":"Polygon","coordinates":[[[-49.48695749667368,-28.945086218784887],[-49.476292195165705,-28.935506816575817],[-49.48598900952953,-28.932597490483708],[-49.487958807527754,-28.944993173003827],[-49.48695749667368,-28.945086218784887]]]}},{"type":"Feature","properties":{"name":"Coloninha"},"geometry":{"type":"Polygon","coordinates":[[[-49.470631487562706,-28.942964679443016],[-49.41252423482672,-28.93693793302357],[-49.42920678537214,-28.87646798],[-49.44254973918553,-28.87646798],[-49.47474087081688,-28.93502459655426],[-49.47251921011877,-28.9410665344396],[-49.470631487562706,-28.942964679443016]]]}},{"type":"Feature","properties":{"name":"Nova Divineia"},"geometry":{"type":"Polygon","coordinates":[[[-49.48137012526418,-28.94852773989747],[-49.48695749667368,-28.945086218784887],[-49.487958807527754,-28.944993173003827],[-49.48804530929699,-28.94501346702789],[-49.53600557879535,-29.001515215127032],[-49.50323616097797,-29.05700142],[-49.43235029013469,-29.05700142],[-49.471141472016086,-28.961816587360886],[-49.48137012526418,-28.94852773989747]]]}},{"type":"Feature","properties":{"name":"Barranca"},"geometry":{"type":"Polygon","coordinates":[[[-49.557609734302645,-28.87646798],[-49.48804530929699,-28.94501346702789],[-49.487958807527754,-28.944993173003827],[-49.48598900952953,-28.932597490483708],[-49.521471026133625,-28.87646798],[-49.557609734302645,-28.87646798]]]}},{"type":"Feature","properties":{"name":"Urussanguinha"},"geometry":{"type":"Polygon","coordinates":[[[-49.48137012526418,-28.94852773989747],[-49.47251921011877,-28.9410665344396],[-49.47474087081688,-28.93502459655426],[-49.476292195165705,-28.935506816575817],[-49.48695749667368,-28.945086218784887],[-49.48137012526418,-28.94852773989747]]]}},{"type":"Feature","properties":{"name":"Hercilio Luz"},"geometry":{"type":"Polygon","coordinates":[[[-49.29341173,-29.05700142],[-49.29341173,-28.87646798],[-49.42920678537214,-28.87646798],[-49.41252423482672,-28.93693793302357],[-49.36985316642616,-29.05700142],[-49.29341173,-29.05700142]]]}},{"type":"Feature","properties":{"name":"Cidade Alta"},"geometry":{"type":"Polygon","coordinates":[[[-49.48804530929699,-28.94501346702789],[-49.557609734302645,-28.87646798],[-49.6310964890589,-28.87646798],[-49.53600557879535,-29.001515215127032],[-49.48804530929699,-28.94501346702789]]]}},{"type":"Feature","properties":{"name":"Sanga Da Toca"},"geometry":{"type":"Polygon","coordinates":[[[-49.67325957,-28.87646798],[-49.67325957,-29.05700142],[-49.50323616097797,-29.05700142],[-49.53600557879535,-29.001515215127032],[-49.6310964890589,-28.87646798],[-49.67325957,-28.87646798]]]}},{"type":"Feature","properties":{"name":"Campo Verde"},"geometry":{"type":"Polygon","coordinates":[[[-49.521471026133625,-28.87646798],[-49.48598900952953,-28.932597490483708],[-49.476292195165705,-28.935506816575817],[-49.47474087081688,-28.93502459655426],[-49.44254973918553,-28.87646798],[-49.521471026133625,-28.87646798]]]}},{"type":"Feature","properties":{"name":"Morro Dos Conventos"},"geometry":{"type":"Polygon","coordinates":[[[-49.48137012526418,-28.94852773989747],[-49.471141472016086,-28.961816587360886],[-49.470631487562706,-28.942964679443016],[-49.47251921011877,-28.9410665344396],[-49.48137012526418,-28.94852773989747]]]}}]}