{"type":"FeatureCollection","features":[{"type":"Feature","properties":{"name":"Centro","source":"voronoi"},"geometry":{"type":"Polygon","coordinates":[[[-49.38374626123721,-26.953701831713065],[-49.39020679548788,-26.95887407168442],[-49.39323719890056,-26.97667395793003],[-49.374989756575395,-26.971805474762085],[-49.370099904227146,-26.96207357687181],[-49.38374626123721,-26.953701831713065]]]}},{"type":"Feature","properties":{"name":"Estação","source":"voronoi"},"geometry":{"type":"Polygon","coordinates":[[[-49.3476416,-26.931837899999998],[-49.35027630370549,-26.931837899999998],[-49.370099904227146,-26.96207357687181],[-49.374989756575395,-26.971805474762085],[-49.3476416,-26.983758202862926],[-49.3476416,-26.931837899999998]]]}},{"type":"Feature","properties":{"name":"Guaricanas I","source":"voronoi"},"geometry":{"type":"Polygon","coordinates":[[[-49.36261059201969,-26.931837899999998],[-49.38374626123721,-26.953701831713065],[-49.370099904227146,-26.96207357687181],[-49.35027630370549,-26.931837899999998],[-49.36261059201969,-26.931837899999998]]]}},{"type":"Feature","properties":{"name":"Ribeirão Santa Bárbara","source":"voronoi"},"geometry":{"type":"Polygon","coordinates":[[[-49.3476416,-26.9997392],[-49.3476416,-26.983758202862926],[-49.374989756575395,-26.971805474762085],[-49.39323719890056,-26.97667395793003],[-49.41579289756905,-26.9997392],[-49.3476416,-26.9997392]]]}},{"type":"Feature","properties":{"name":"Ribeirão São Paulo","source":"voronoi"},"geometry":{"type":"Polygon","coordinates":[[[-49.4168019,-26.931837899999998],[-49.4168019,-26.9997392],[-49.41579289756905,-26.9997392],[-49.39323719890056,-26.97667395793003],[-49.39020679548788,-26.95887407168442],[-49.404147053914166,-26.931837899999998],[-49.4168019,-26.931837899999998]]]}},{"type":"Feature","properties":{"name":"Vila Nova","source":"voronoi"},"geometry":{"type":"Polygon","coordinates":[[[-49.404147053914166,-26.931837899999998],[-49.39020679548788,-26.95887407168442],[-49.38374626123721,-26.953701831713065],[-49.36261059201969,-26.931837899999998],[-49.404147053914166,-26.931837899999998]]]}}]}