{"type":"FeatureCollection","features":[{"type":"Feature","properties":{"name":"Centro","source":"voronoi"},"geometry":{"type":"Polygon","coordinates":[[[-49.7976037,-27.405579],[-49.7976037,-27.437003100000002],[-49.73316769627854,-27.437003100000002],[-49.73362240358256,-27.405579],[-49.7976037,-27.405579]]]}},{"type":"Feature","properties":{"name":"Ribeirao Matilde","source":"voronoi"},"geometry":{"type":"Polygon","coordinates":[[[-49.73362240358256,-27.405579],[-49.73316769627854,-27.437003100000002],[-49.6691864,-27.437003100000002],[-49.6691864,-27.405579],[-49.73362240358256,-27.405579]]]}}]}