{"type":"FeatureCollection","features":[{"type":"Feature","properties":{"name":"Barra Cobras Sul","source":"voronoi"},"geometry":{"type":"Polygon","coordinates":[[[-49.6875449,-27.3721037],[-49.579258,-27.3721037],[-49.579258,-27.31509888851703],[-49.619286840121845,-27.303839740530208],[-49.6875449,-27.364231152219855],[-49.6875449,-27.3721037]]]}},{"type":"Feature","properties":{"name":"Serra Aurora","source":"voronoi"},"geometry":{"type":"Polygon","coordinates":[[[-49.579258,-27.2417133],[-49.65406235941116,-27.2417133],[-49.619286840121845,-27.303839740530208],[-49.579258,-27.31509888851703],[-49.579258,-27.2417133]]]}},{"type":"Feature","properties":{"name":"Strey","source":"voronoi"},"geometry":{"type":"Polygon","coordinates":[[[-49.6875449,-27.2417133],[-49.6875449,-27.364231152219855],[-49.619286840121845,-27.303839740530208],[-49.65406235941116,-27.2417133],[-49.6875449,-27.2417133]]]}}]}