{"type":"FeatureCollection","features":[{"type":"Feature","properties":{"name":"Centro","source":"voronoi"},"geometry":{"type":"Polygon","coordinates":[[[-49.3992266,-28.9677404],[-49.429134803549246,-28.9677404],[-49.3992266,-29.001179909308835],[-49.3992266,-28.9677404]]]}},{"type":"Feature","properties":{"name":"Golfinhos","source":"voronoi"},"geometry":{"type":"Polygon","coordinates":[[[-49.451381500000004,-29.0188954],[-49.417755199198005,-29.0188954],[-49.44461804354915,-28.974799426894155],[-49.451381500000004,-28.967752394859694],[-49.451381500000004,-29.0188954]]]}},{"type":"Feature","properties":{"name":"Jardim Atlantico","source":"voronoi"},"geometry":{"type":"Polygon","coordinates":[[[-49.3992266,-29.0188954],[-49.3992266,-29.00167893098173],[-49.44461804354915,-28.974799426894155],[-49.417755199198005,-29.0188954],[-49.3992266,-29.0188954]]]}},{"type":"Feature","properties":{"name":"Praia Da Cacamba","source":"voronoi"},"geometry":{"type":"Polygon","coordinates":[[[-49.451381500000004,-28.967752394859694],[-49.44461804354915,-28.974799426894155],[-49.3992266,-29.00167893098173],[-49.3992266,-29.001179909308835],[-49.429134803549246,-28.9677404],[-49.451381500000004,-28.9677404],[-49.451381500000004,-28.967752394859694]]]}}]}