{"type":"FeatureCollection","features":[{"type":"Feature","properties":{"name":"Centro","source":"voronoi"},"geometry":{"type":"Polygon","coordinates":[[[-48.5924626,-26.4785971],[-48.5924626,-26.462131120713476],[-48.620292101624955,-26.46016640790762],[-48.62832518775396,-26.4785971],[-48.5924626,-26.4785971]]]}},{"type":"Feature","properties":{"name":"Conquista","source":"voronoi"},"geometry":{"type":"Polygon","coordinates":[[[-48.5924626,-26.438366],[-48.61557572351439,-26.438366],[-48.620292101624955,-26.46016640790762],[-48.5924626,-26.462131120713476],[-48.5924626,-26.438366]]]}},{"type":"Feature","properties":{"name":"Costeira","source":"voronoi"},"geometry":{"type":"Polygon","coordinates":[[[-48.6462946,-26.438366],[-48.6462946,-26.4785971],[-48.62832518775396,-26.4785971],[-48.620292101624955,-26.46016640790762],[-48.61557572351439,-26.438366],[-48.6462946,-26.438366]]]}}]}