{"type":"FeatureCollection","features":[{"type":"Feature","properties":{"name":"Lagoa de Fora","osmId":8845327,"osmType":"relation"},"geometry":{"type":"Polygon","coordinates":[[[-49.6046072,-29.137459],[-49.6047038,-29.1374215],[-49.604795,-29.1373981],[-49.6048862,-29.1373747],[-49.6049827,-29.1373559],[-49.6050793,-29.1373559],[-49.6051812,-29.1373559],[-49.6052724,-29.1373559],[-49.605369,-29.1373465],[-49.6054655,-29.1373325],[-49.6055675,-29.1373184],[-49.605664,-29.1373091],[-49.6057552,-29.1373091],[-49.6058518,-29.1373044],[-49.6059483,-29.1373044],[-49.6060449,-29.1373044],[-49.6061415,-29.1373138],[-49.6061736,-29.1373325],[-49.6062595,-29.1373653],[-49.6063507,-29.1373981],[-49.6064419,-29.1374309],[-49.6065277,-29.1374637],[-49.6066243,-29.1374871],[-49.6067208,-29.1375059],[-49.6068066,-29.1375387],[-49.6068871,-29.1375715],[-49.6069783,-29.1376089],[-49.6070818,-29.1376586],[-49.6072219,-29.1377094],[-49.6073315,-29.1377503],[-49.607504,-29.1377917],[-49.6075898,-29.1378245],[-49.6076757,-29.1378807],[-49.6077615,-29.1379182],[-49.607842,-29.137965],[-49.6079278,-29.1380166],[-49.6080029,-29.1380634],[-49.608078,-29.1381103],[-49.6081477,-29.1381665],[-49.6082014,-29.1382274],[-49.608255,-29.138293],[-49.608314,-29.1383586],[-49.6083838,-29.1384242],[-49.6084482,-29.1384945],[-49.6085125,-29.1385507],[-49.6085876,-29.1386023],[-49.608652,-29.1386585],[-49.6087003,-29.1387288],[-49.6087807,-29.13886],[-49.6088451,-29.1389256],[-49.608888,-29.1389959],[-49.6089256,-29.1390755],[-49.6089578,-29.1391505],[-49.6090007,-29.1392254],[-49.6090436,-29.1392957],[-49.6090919,-29.139366],[-49.6091348,-29.1394457],[-49.6091723,-29.1395206],[-49.6092099,-29.1395956],[-49.6092421,-29.1396753],[-49.6092689,-29.1397502],[-49.6092957,-29.1398299],[-49.6093172,-29.1399142],[-49.6093386,-29.1399892],[-49.6093601,-29.1400688],[-49.6093816,-29.1401438],[-49.6093923,-29.1402235],[-49.6094137,-29.1403031],[-49.6094513,-29.1403734],[-49.6094835,-29.1404484],[-49.609521,-29.140528],[-49.6095371,-29.1406077],[-49.6095479,-29.1406826],[-49.6095586,-29.1407857],[-49.6095854,-29.1408607],[-49.6095908,-29.1409403],[-49.6095961,-29.1410247],[-49.6096122,-29.141109],[-49.6096283,-29.1411887],[-49.6096391,-29.1412683],[-49.6096551,-29.1413433],[-49.6096659,-29.1414229],[-49.6096873,-29.1415026],[-49.6097034,-29.1415822],[-49.6097195,-29.1416619],[-49.6097356,-29.1417368],[-49.6097517,-29.1418165],[-49.6097785,-29.1418915],[-49.6097839,-29.1419711],[-49.6097893,-29.1420508],[-49.6097893,-29.1421304],[-49.6098054,-29.1422101],[-49.6098054,-29.1422897],[-49.6098054,-29.1423694],[-49.6098,-29.142449],[-49.6097785,-29.1425708],[-49.609741,-29.1426411],[-49.6097195,-29.1427208],[-49.6097088,-29.1428004],[-49.6097088,-29.1428754],[-49.6097571,-29.142941],[-49.6098322,-29.1429878],[-49.6099126,-29.14303],[-49.6099824,-29.1430815],[-49.6100575,-29.1431378],[-49.6101058,-29.1432034],[-49.6101379,-29.1432736],[-49.6101594,-29.1433533],[-49.610154,-29.1434329],[-49.6101487,-29.1435173],[-49.6101433,-29.1435969],[-49.6101433,-29.1436766],[-49.6101487,-29.1437562],[-49.6101862,-29.1438265],[-49.6102077,-29.1439108],[-49.6102452,-29.1439858],[-49.6103203,-29.1440561],[-49.6103793,-29.1441217],[-49.6104169,-29.1441966],[-49.6104705,-29.1442669],[-49.6105135,-29.1443372],[-49.6105725,-29.1444075],[-49.6106154,-29.1444824],[-49.610669,-29.144548],[-49.610728,-29.1446183],[-49.6107817,-29.1446839],[-49.6108192,-29.1447542],[-49.6108568,-29.1448245],[-49.6109158,-29.1448854],[-49.6109694,-29.1449463],[-49.6110284,-29.1450072],[-49.6110928,-29.1450775],[-49.6111625,-29.1451384],[-49.6112377,-29.1451759],[-49.6113128,-29.1452368],[-49.6113879,-29.1452883],[-49.6114361,-29.1453586],[-49.6114469,-29.1454382],[-49.6114469,-29.1455179],[-49.6114683,-29.1455975],[-49.6115488,-29.145635],[-49.61164,-29.1456116],[-49.6117258,-29.1455788],[-49.6118009,-29.1456303],[-49.6118385,-29.1457053],[-49.6118867,-29.1457709],[-49.6119404,-29.1458365],[-49.6119994,-29.1459021],[-49.6120477,-29.1459583],[-49.6121121,-29.1460145],[-49.6121657,-29.1460801],[-49.6121818,-29.1461597],[-49.6121818,-29.1462488],[-49.6121281,-29.1463097],[-49.6120584,-29.1463612],[-49.6119726,-29.1463799],[-49.611876,-29.146394],[-49.6117902,-29.1463987],[-49.611699,-29.1463987],[-49.6116132,-29.1463987],[-49.6115273,-29.1463846],[-49.6114415,-29.1463659],[-49.6113557,-29.1463472],[-49.6112806,-29.1463144],[-49.6111894,-29.146305],[-49.6110982,-29.1462956],[-49.611007,-29.1462862],[-49.6109211,-29.1462816],[-49.61083,-29.1462722],[-49.6107549,-29.1462394],[-49.6106744,-29.1462019],[-49.6105886,-29.1461785],[-49.6105135,-29.1461457],[-49.610433,-29.1461035],[-49.6103579,-29.146066],[-49.6102828,-29.1460239],[-49.6102077,-29.145977],[-49.6101326,-29.1459349],[-49.6100628,-29.1458927],[-49.6100146,-29.1458599],[-49.6099877,-29.1457756],[-49.6099019,-29.1457474],[-49.6098161,-29.1457428],[-49.6097195,-29.1457428],[-49.6096337,-29.1457287],[-49.6095479,-29.1456959],[-49.6094674,-29.1456584],[-49.6093923,-29.1456209],[-49.6093226,-29.1455741],[-49.6092582,-29.1455179],[-49.6091992,-29.1454616],[-49.6091455,-29.1453961],[-49.6091133,-29.1453258],[-49.6090651,-29.1452602],[-49.6090329,-29.1451852],[-49.6090007,-29.1451149],[-49.6089578,-29.14504],[-49.6089202,-29.144965],[-49.6088773,-29.1448854],[-49.6088398,-29.1448057],[-49.6088076,-29.1447308],[-49.6087593,-29.1446558],[-49.608711,-29.1445902],[-49.6086574,-29.1445293],[-49.6086145,-29.144459],[-49.6085662,-29.144384],[-49.6085286,-29.1443138],[-49.6085179,-29.1442482],[-49.6084642,-29.1441826],[-49.6083731,-29.1441779],[-49.6082819,-29.1441545],[-49.6082014,-29.1441217],[-49.6081424,-29.1440608],[-49.6081156,-29.1439858],[-49.6080726,-29.1439155],[-49.6080244,-29.1438452],[-49.6079654,-29.1437656],[-49.607901,-29.1436953],[-49.6078312,-29.1436485],[-49.6077669,-29.1435922],[-49.6077079,-29.143536],[-49.6076489,-29.1434798],[-49.6076006,-29.1434095],[-49.6075469,-29.1433439],[-49.6074879,-29.143283],[-49.6074396,-29.1432174],[-49.6073914,-29.1431518],[-49.6073324,-29.1430815],[-49.6072787,-29.1430159],[-49.6072036,-29.1429691],[-49.6071339,-29.1429269],[-49.607091,-29.1428613],[-49.6070749,-29.142777],[-49.6070641,-29.1426973],[-49.6070534,-29.142613],[-49.607048,-29.1424209],[-49.6070427,-29.1423366],[-49.6070159,-29.1422616],[-49.606989,-29.1421866],[-49.6069515,-29.1421117],[-49.6069247,-29.142032],[-49.6068978,-29.1419571],[-49.6068764,-29.1418774],[-49.6068442,-29.1418024],[-49.6068066,-29.1417275],[-49.6067691,-29.1416431],[-49.6067262,-29.1415729],[-49.606694,-29.1414979],[-49.6066564,-29.1414229],[-49.6066135,-29.1413339],[-49.6065813,-29.1412542],[-49.6065491,-29.1411699],[-49.6065223,-29.1410903],[-49.6065009,-29.1410153],[-49.6064794,-29.1409356],[-49.606458,-29.1408513],[-49.6064365,-29.1407716],[-49.6064097,-29.1406405],[-49.6063668,-29.1405702],[-49.6063614,-29.1404858],[-49.6063614,-29.1404015],[-49.6063614,-29.1403218],[-49.6063399,-29.1402375],[-49.6063078,-29.1401625],[-49.6062648,-29.1400876],[-49.6062112,-29.1400267],[-49.6061468,-29.1399704],[-49.6060771,-29.1399189],[-49.6059859,-29.1399095],[-49.6058947,-29.1399048],[-49.605841,-29.1398439],[-49.605825,-29.1397643],[-49.6058142,-29.1396799],[-49.6057606,-29.1396143],[-49.6057177,-29.1395441],[-49.605664,-29.1394832],[-49.6056157,-29.1394176],[-49.605546,-29.1393613],[-49.6054977,-29.1392957],[-49.6054494,-29.1392254],[-49.6054387,-29.1391458],[-49.6054226,-29.1390661],[-49.6054173,-29.1389865]]]}}]}