{"type":"FeatureCollection","features":[{"type":"Feature","properties":{"name":"Centro","source":"voronoi"},"geometry":{"type":"Polygon","coordinates":[[[-48.6622639,-26.790337400000002],[-48.6622639,-26.75269568848314],[-48.68724011188355,-26.765029180839253],[-48.688053576463155,-26.766227144234115],[-48.669779735676535,-26.790337400000002],[-48.6622639,-26.790337400000002]]]}},{"type":"Feature","properties":{"name":"Itacolomi","source":"voronoi"},"geometry":{"type":"Polygon","coordinates":[[[-48.6622639,-26.7394544],[-48.673993170308115,-26.7394544],[-48.68724011188355,-26.765029180839253],[-48.6622639,-26.75269568848314],[-48.6622639,-26.7394544]]]}},{"type":"Feature","properties":{"name":"Nossa Senhora Da Conceição","source":"voronoi"},"geometry":{"type":"Polygon","coordinates":[[[-48.7105217,-26.790337400000002],[-48.669779735676535,-26.790337400000002],[-48.688053576463155,-26.766227144234115],[-48.7105217,-26.75774578533736],[-48.7105217,-26.790337400000002]]]}},{"type":"Feature","properties":{"name":"Santo Antônio","source":"voronoi"},"geometry":{"type":"Polygon","coordinates":[[[-48.7105217,-26.7394544],[-48.7105217,-26.75774578533736],[-48.688053576463155,-26.766227144234115],[-48.68724011188355,-26.765029180839253],[-48.673993170308115,-26.7394544],[-48.7105217,-26.7394544]]]}}]}