{"type":"FeatureCollection","features":[{"type":"Feature","properties":{"name":"Balneário Rincão - Centro","source":"voronoi"},"geometry":{"type":"Polygon","coordinates":[[[-49.3156004,-28.884305],[-49.227762121511844,-28.884305],[-49.25194978109281,-28.853824458236634],[-49.3156004,-28.793926405787847],[-49.3156004,-28.884305]]]}},{"type":"Feature","properties":{"name":"Lagoa Dos Freitas","source":"voronoi"},"geometry":{"type":"Polygon","coordinates":[[[-49.2108202,-28.884305],[-49.2108202,-28.789324],[-49.22526222080234,-28.789324],[-49.25194978109281,-28.853824458236634],[-49.227762121511844,-28.884305],[-49.2108202,-28.884305]]]}},{"type":"Feature","properties":{"name":"Pedreiras","source":"voronoi"},"geometry":{"type":"Polygon","coordinates":[[[-49.3156004,-28.789324],[-49.3156004,-28.793926405787847],[-49.25194978109281,-28.853824458236634],[-49.22526222080234,-28.789324],[-49.3156004,-28.789324]]]}}]}