{"type":"FeatureCollection","features":[{"type":"Feature","properties":{"name":"Aririba","source":"voronoi"},"geometry":{"type":"Polygon","coordinates":[[[-48.6699848,-26.9560587],[-48.6699848,-26.97412805893107],[-48.64824914404627,-26.984292492668505],[-48.63984828758637,-26.973428509771907],[-48.641492407121916,-26.9560587],[-48.6699848,-26.9560587]]]}},{"type":"Feature","properties":{"name":"Barra","source":"voronoi"},"geometry":{"type":"Polygon","coordinates":[[[-48.63287274652035,-26.995563174592018],[-48.60672700562886,-26.97534449597522],[-48.61778736765803,-26.977007069141376],[-48.64476376621327,-26.98532018723015],[-48.63287274652035,-26.995563174592018]]]}},{"type":"Feature","properties":{"name":"Centro","source":"voronoi"},"geometry":{"type":"Polygon","coordinates":[[[-48.63391891822086,-27.00161735264473],[-48.63287274652035,-26.995563174592018],[-48.64476376621327,-26.98532018723015],[-48.64765190443753,-26.984850391803715],[-48.64766527447307,-26.997085562016192],[-48.63391891822086,-27.00161735264473]]]}},{"type":"Feature","properties":{"name":"Dos Estados","source":"voronoi"},"geometry":{"type":"Polygon","coordinates":[[[-48.6699848,-27.03828406140036],[-48.669676680254625,-27.037893194923875],[-48.64766527447307,-26.997085562016192],[-48.64765190443753,-26.984850391803715],[-48.64824914404627,-26.984292492668505],[-48.6699848,-26.97412805893107],[-48.6699848,-27.03828406140036]]]}},{"type":"Feature","properties":{"name":"Estaleirinho","source":"voronoi"},"geometry":{"type":"Polygon","coordinates":[[[-48.5655825,-27.0662756],[-48.5655825,-27.0355639400508],[-48.60336658947039,-27.025794004951294],[-48.61242692857353,-27.03320950539671],[-48.64288583990757,-27.0662756],[-48.5655825,-27.0662756]]]}},{"type":"Feature","properties":{"name":"Estaleiro","source":"voronoi"},"geometry":{"type":"Polygon","coordinates":[[[-48.64476376621327,-26.98532018723015],[-48.61778736765803,-26.977007069141376],[-48.63984828758637,-26.973428509771907],[-48.64824914404627,-26.984292492668505],[-48.64765190443753,-26.984850391803715],[-48.64476376621327,-26.98532018723015]]]}},{"type":"Feature","properties":{"name":"Jardim Iate Clube","source":"voronoi"},"geometry":{"type":"Polygon","coordinates":[[[-48.633964682321825,-27.005009704125055],[-48.669676680254625,-27.037893194923875],[-48.6699848,-27.03828406140036],[-48.6699848,-27.0662756],[-48.64288583990757,-27.0662756],[-48.61242692857353,-27.03320950539671],[-48.633964682321825,-27.005009704125055]]]}},{"type":"Feature","properties":{"name":"Municipios","source":"voronoi"},"geometry":{"type":"Polygon","coordinates":[[[-48.633964682321825,-27.005009704125055],[-48.63341309050399,-27.003621951465185],[-48.63391891822086,-27.00161735264473],[-48.64766527447307,-26.997085562016192],[-48.669676680254625,-27.037893194923875],[-48.633964682321825,-27.005009704125055]]]}},{"type":"Feature","properties":{"name":"Nova Esperanca","source":"voronoi"},"geometry":{"type":"Polygon","coordinates":[[[-48.63341309050399,-27.003621951465185],[-48.6032586332542,-27.003832847223112],[-48.59528024338769,-26.970967312957253],[-48.60672700562886,-26.97534449597522],[-48.63287274652035,-26.995563174592018],[-48.63391891822086,-27.00161735264473],[-48.63341309050399,-27.003621951465185]]]}},{"type":"Feature","properties":{"name":"Pioneiros","source":"voronoi"},"geometry":{"type":"Polygon","coordinates":[[[-48.641492407121916,-26.9560587],[-48.63984828758637,-26.973428509771907],[-48.61778736765803,-26.977007069141376],[-48.60672700562886,-26.97534449597522],[-48.59528024338769,-26.970967312957253],[-48.585055237411666,-26.9560587],[-48.641492407121916,-26.9560587]]]}},{"type":"Feature","properties":{"name":"Taquaras","source":"voronoi"},"geometry":{"type":"Polygon","coordinates":[[[-48.5655825,-26.9560587],[-48.585055237411666,-26.9560587],[-48.59528024338769,-26.970967312957253],[-48.6032586332542,-27.003832847223112],[-48.60336658947039,-27.025794004951294],[-48.5655825,-27.0355639400508],[-48.5655825,-26.9560587]]]}},{"type":"Feature","properties":{"name":"Vila Real","source":"voronoi"},"geometry":{"type":"Polygon","coordinates":[[[-48.633964682321825,-27.005009704125055],[-48.61242692857353,-27.03320950539671],[-48.60336658947039,-27.025794004951294],[-48.6032586332542,-27.003832847223112],[-48.63341309050399,-27.003621951465185],[-48.633964682321825,-27.005009704125055]]]}}]}