{"type":"FeatureCollection","features":[{"type":"Feature","properties":{"name":"Açorianos","source":"voronoi"},"geometry":{"type":"Polygon","coordinates":[[[-48.6678837,-26.5880467],[-48.69592455537299,-26.5880467],[-48.69241694781373,-26.627306640148756],[-48.69053463314119,-26.630669535140072],[-48.6678837,-26.635105170582285],[-48.6678837,-26.5880467]]]}},{"type":"Feature","properties":{"name":"Centro","source":"voronoi"},"geometry":{"type":"Polygon","coordinates":[[[-48.733081,-26.65897890661991],[-48.733081,-26.67993428635064],[-48.6678837,-26.680339765900015],[-48.6678837,-26.635105170582285],[-48.69053463314119,-26.630669535140072],[-48.733081,-26.65897890661991]]]}},{"type":"Feature","properties":{"name":"Itajuba","source":"voronoi"},"geometry":{"type":"Polygon","coordinates":[[[-48.733081,-26.7162168],[-48.6678837,-26.7162168],[-48.6678837,-26.680339765900015],[-48.733081,-26.67993428635064],[-48.733081,-26.7162168]]]}},{"type":"Feature","properties":{"name":"Sertãozinho","source":"voronoi"},"geometry":{"type":"Polygon","coordinates":[[[-48.733081,-26.65897890661991],[-48.69053463314119,-26.630669535140072],[-48.69241694781373,-26.627306640148756],[-48.733081,-26.599666674752083],[-48.733081,-26.65897890661991]]]}},{"type":"Feature","properties":{"name":"Vila Nova","source":"voronoi"},"geometry":{"type":"Polygon","coordinates":[[[-48.733081,-26.5880467],[-48.733081,-26.599666674752083],[-48.69241694781373,-26.627306640148756],[-48.69592455537299,-26.5880467],[-48.733081,-26.5880467]]]}}]}