{"type":"FeatureCollection","features":[{"type":"Feature","properties":{"name":"Alto Benedito Novo","source":"voronoi"},"geometry":{"type":"Polygon","coordinates":[[[-49.4348551,-26.811363522510867],[-49.387632681522476,-26.777038878994713],[-49.38721311441737,-26.768875693809647],[-49.39213840716455,-26.749641433298876],[-49.4348551,-26.757556308371512],[-49.4348551,-26.811363522510867]]]}},{"type":"Feature","properties":{"name":"Centro","source":"voronoi"},"geometry":{"type":"Polygon","coordinates":[[[-49.3468533,-26.8131445],[-49.3468533,-26.777727305780573],[-49.38721311441737,-26.768875693809647],[-49.387632681522476,-26.777038878994713],[-49.36858700900893,-26.8131445],[-49.3468533,-26.8131445]]]}},{"type":"Feature","properties":{"name":"Ribeirão Dos Russos","source":"voronoi"},"geometry":{"type":"Polygon","coordinates":[[[-49.4348551,-26.8131445],[-49.36858700900893,-26.8131445],[-49.387632681522476,-26.777038878994713],[-49.4348551,-26.811363522510867],[-49.4348551,-26.8131445]]]}},{"type":"Feature","properties":{"name":"Ribeirão Tigre","source":"voronoi"},"geometry":{"type":"Polygon","coordinates":[[[-49.3468533,-26.7136775],[-49.36857135299732,-26.7136775],[-49.39213840716455,-26.749641433298876],[-49.38721311441737,-26.768875693809647],[-49.3468533,-26.777727305780573],[-49.3468533,-26.7136775]]]}},{"type":"Feature","properties":{"name":"Santa Maria","source":"voronoi"},"geometry":{"type":"Polygon","coordinates":[[[-49.4348551,-26.7136775],[-49.4348551,-26.757556308371512],[-49.39213840716455,-26.749641433298876],[-49.36857135299732,-26.7136775],[-49.4348551,-26.7136775]]]}}]}