{"type":"FeatureCollection","features":[{"type":"Feature","properties":{"name":"Areias De Cima","source":"voronoi"},"geometry":{"type":"Polygon","coordinates":[[[-48.6171241,-27.3545287],[-48.68038873673875,-27.3545287],[-48.68326471029016,-27.387806238459618],[-48.6171241,-27.386196572651954],[-48.6171241,-27.3545287]]]}},{"type":"Feature","properties":{"name":"Bom Viver","source":"voronoi"},"geometry":{"type":"Polygon","coordinates":[[[-48.7465731,-27.540108],[-48.72537599702522,-27.540108],[-48.71065561670037,-27.525268461129123],[-48.682924533755724,-27.484339378451057],[-48.676748583580434,-27.42174627516308],[-48.68915270782619,-27.410754079370708],[-48.7465731,-27.430148083232993],[-48.7465731,-27.540108]]]}},{"type":"Feature","properties":{"name":"Cachoeiras","source":"voronoi"},"geometry":{"type":"Polygon","coordinates":[[[-48.6171241,-27.386196572651954],[-48.68326471029016,-27.387806238459618],[-48.68915270782619,-27.410754079370708],[-48.676748583580434,-27.42174627516308],[-48.656019265440776,-27.430628570513324],[-48.6171241,-27.43494068373021],[-48.6171241,-27.386196572651954]]]}},{"type":"Feature","properties":{"name":"Centro","source":"voronoi"},"geometry":{"type":"Polygon","coordinates":[[[-48.659566846977825,-27.496096639760466],[-48.650500648321135,-27.505072433736224],[-48.64951760573647,-27.50506407856462],[-48.64384698301951,-27.497248342652977],[-48.649719566279494,-27.49339318289561],[-48.65676651052064,-27.491784450280104],[-48.659566846977825,-27.496096639760466]]]}},{"type":"Feature","properties":{"name":"Fundos","source":"voronoi"},"geometry":{"type":"Polygon","coordinates":[[[-48.71065561670037,-27.525268461129123],[-48.72537599702522,-27.540108],[-48.67450356617557,-27.540108],[-48.64621821274486,-27.51604621315202],[-48.64951760573647,-27.50506407856462],[-48.650500648321135,-27.505072433736224],[-48.682361790760275,-27.512699713371948],[-48.71065561670037,-27.525268461129123]]]}},{"type":"Feature","properties":{"name":"Jardim Janaína","source":"voronoi"},"geometry":{"type":"Polygon","coordinates":[[[-48.6171241,-27.540108],[-48.6171241,-27.52002994346195],[-48.64621821274486,-27.51604621315202],[-48.67450356617557,-27.540108],[-48.6171241,-27.540108]]]}},{"type":"Feature","properties":{"name":"Prado","source":"voronoi"},"geometry":{"type":"Polygon","coordinates":[[[-48.66171489288563,-27.482308813561083],[-48.65676651052064,-27.491784450280104],[-48.649719566279494,-27.49339318289561],[-48.65002650531653,-27.47608768448372],[-48.652699575966686,-27.47415180876208],[-48.66171489288563,-27.482308813561083]]]}},{"type":"Feature","properties":{"name":"Prado De Baixo","source":"voronoi"},"geometry":{"type":"Polygon","coordinates":[[[-48.65002650531653,-27.47608768448372],[-48.649719566279494,-27.49339318289561],[-48.64384698301951,-27.497248342652977],[-48.61781879394083,-27.48979100680542],[-48.65002650531653,-27.47608768448372]]]}},{"type":"Feature","properties":{"name":"Praia João Rosa","source":"voronoi"},"geometry":{"type":"Polygon","coordinates":[[[-48.6171241,-27.489805907064195],[-48.61781879394083,-27.48979100680542],[-48.64384698301951,-27.497248342652977],[-48.64951760573647,-27.50506407856462],[-48.64621821274486,-27.51604621315202],[-48.6171241,-27.52002994346195],[-48.6171241,-27.489805907064195]]]}},{"type":"Feature","properties":{"name":"São Miguel","source":"voronoi"},"geometry":{"type":"Polygon","coordinates":[[[-48.65002650531653,-27.47608768448372],[-48.61781879394083,-27.48979100680542],[-48.6171241,-27.489805907064195],[-48.6171241,-27.43494068373021],[-48.656019265440776,-27.430628570513324],[-48.652699575966686,-27.47415180876208],[-48.65002650531653,-27.47608768448372]]]}},{"type":"Feature","properties":{"name":"Saudade","source":"voronoi"},"geometry":{"type":"Polygon","coordinates":[[[-48.682924533755724,-27.484339378451057],[-48.66171489288563,-27.482308813561083],[-48.652699575966686,-27.47415180876208],[-48.656019265440776,-27.430628570513324],[-48.676748583580434,-27.42174627516308],[-48.682924533755724,-27.484339378451057]]]}},{"type":"Feature","properties":{"name":"Sorocaba Do Sul","source":"voronoi"},"geometry":{"type":"Polygon","coordinates":[[[-48.7465731,-27.3545287],[-48.7465731,-27.430148083232993],[-48.68915270782619,-27.410754079370708],[-48.68326471029016,-27.387806238459618],[-48.68038873673875,-27.3545287],[-48.7465731,-27.3545287]]]}},{"type":"Feature","properties":{"name":"Universitário","source":"voronoi"},"geometry":{"type":"Polygon","coordinates":[[[-48.659566846977825,-27.496096639760466],[-48.682361790760275,-27.512699713371948],[-48.650500648321135,-27.505072433736224],[-48.659566846977825,-27.496096639760466]]]}},{"type":"Feature","properties":{"name":"Vendaval","source":"voronoi"},"geometry":{"type":"Polygon","coordinates":[[[-48.682924533755724,-27.484339378451057],[-48.71065561670037,-27.525268461129123],[-48.682361790760275,-27.512699713371948],[-48.659566846977825,-27.496096639760466],[-48.65676651052064,-27.491784450280104],[-48.66171489288563,-27.482308813561083],[-48.682924533755724,-27.484339378451057]]]}}]}