{"type":"FeatureCollection","features":[{"type":"Feature","properties":{"name":"Água Verde","source":"voronoi"},"geometry":{"type":"Polygon","coordinates":[[[-49.11537401244557,-26.888298942470374],[-49.116455942365526,-26.888294102087738],[-49.13300205739637,-26.89942547179245],[-49.13984614162871,-26.91698103550105],[-49.12112650457102,-26.9259321457543],[-49.11397000928001,-26.893791343845077],[-49.11537401244557,-26.888298942470374]]]}},{"type":"Feature","properties":{"name":"Badenfurt","source":"voronoi"},"geometry":{"type":"Polygon","coordinates":[[[-49.116455942365526,-26.888294102087738],[-49.14040734641176,-26.86744994538322],[-49.16694008090047,-26.88067166302079],[-49.13300205739637,-26.89942547179245],[-49.116455942365526,-26.888294102087738]]]}},{"type":"Feature","properties":{"name":"Centro","source":"voronoi"},"geometry":{"type":"Polygon","coordinates":[[[-49.082311180231436,-26.920934156938998],[-49.08795607057982,-26.931321427629438],[-49.044962963548286,-26.938827808239665],[-49.037914103258814,-26.936731000984143],[-49.039687290781586,-26.933684306643794],[-49.07276459219746,-26.912286642398787],[-49.082311180231436,-26.920934156938998]]]}},{"type":"Feature","properties":{"name":"Da Gloria","source":"voronoi"},"geometry":{"type":"Polygon","coordinates":[[[-49.0242648,-26.982349],[-49.0242648,-26.93946873304499],[-49.037914103258814,-26.936731000984143],[-49.044962963548286,-26.938827808239665],[-49.05825091917224,-26.954297659831898],[-49.06085438931632,-26.958745195702527],[-49.065626841125344,-26.982349],[-49.0242648,-26.982349]]]}},{"type":"Feature","properties":{"name":"Escola Agrícola","source":"voronoi"},"geometry":{"type":"Polygon","coordinates":[[[-49.09745679449395,-26.92413939993876],[-49.090866618834866,-26.892708814794425],[-49.10276151475079,-26.88045411525516],[-49.11537401244557,-26.888298942470374],[-49.11397000928001,-26.893791343845077],[-49.09745679449395,-26.92413939993876]]]}},{"type":"Feature","properties":{"name":"Fidelis","source":"voronoi"},"geometry":{"type":"Polygon","coordinates":[[[-49.062315174224395,-26.863108656746764],[-49.0242648,-26.824911917735285],[-49.0242648,-26.8000876315011],[-49.100087759321674,-26.847967436853168],[-49.100061102470434,-26.848339330602524],[-49.09513667325511,-26.864081805204208],[-49.08451255113386,-26.866051462939975],[-49.062315174224395,-26.863108656746764]]]}},{"type":"Feature","properties":{"name":"Fortaleza","source":"voronoi"},"geometry":{"type":"Polygon","coordinates":[[[-49.062315174224395,-26.863108656746764],[-49.08451255113386,-26.866051462939975],[-49.06571497161266,-26.893262485618138],[-49.05681118077015,-26.880794867753526],[-49.062315174224395,-26.863108656746764]]]}},{"type":"Feature","properties":{"name":"Garcia","source":"voronoi"},"geometry":{"type":"Polygon","coordinates":[[[-49.094813738454775,-26.934005120514474],[-49.100026235402154,-26.93980863693523],[-49.10112681545588,-26.949816042331488],[-49.05825091917224,-26.954297659831898],[-49.044962963548286,-26.938827808239665],[-49.08795607057982,-26.931321427629438],[-49.094813738454775,-26.934005120514474]]]}},{"type":"Feature","properties":{"name":"Itoupava Central","source":"voronoi"},"geometry":{"type":"Polygon","coordinates":[[[-49.100087759321674,-26.847967436853168],[-49.0242648,-26.8000876315011],[-49.0242648,-26.79054618189815],[-49.16562442764169,-26.756503586053316],[-49.14716732365855,-26.79138567949398],[-49.100087759321674,-26.847967436853168]]]}},{"type":"Feature","properties":{"name":"Itoupava Norte","source":"voronoi"},"geometry":{"type":"Polygon","coordinates":[[[-49.06571497161266,-26.893262485618138],[-49.08451255113386,-26.866051462939975],[-49.09513667325511,-26.864081805204208],[-49.10276151475079,-26.88045411525516],[-49.090866618834866,-26.892708814794425],[-49.085068517841634,-26.895657753670204],[-49.0661536476856,-26.895774962086026],[-49.06571497161266,-26.893262485618138]]]}},{"type":"Feature","properties":{"name":"Itoupava Seca","source":"voronoi"},"geometry":{"type":"Polygon","coordinates":[[[-49.0661536476856,-26.895774962086026],[-49.085068517841634,-26.895657753670204],[-49.082311180231436,-26.920934156938998],[-49.07276459219746,-26.912286642398787],[-49.06417728092949,-26.899466953475585],[-49.0661536476856,-26.895774962086026]]]}},{"type":"Feature","properties":{"name":"Itoupavazinha","source":"voronoi"},"geometry":{"type":"Polygon","coordinates":[[[-49.100087759321674,-26.847967436853168],[-49.14716732365855,-26.79138567949398],[-49.14005628585635,-26.86623923969608],[-49.100061102470434,-26.848339330602524],[-49.100087759321674,-26.847967436853168]]]}},{"type":"Feature","properties":{"name":"Nova Esperança","source":"voronoi"},"geometry":{"type":"Polygon","coordinates":[[[-49.06571497161266,-26.893262485618138],[-49.0661536476856,-26.895774962086026],[-49.06417728092949,-26.899466953475585],[-49.05371485561204,-26.90506727150369],[-49.03180938002082,-26.8839571973019],[-49.05681118077015,-26.880794867753526],[-49.06571497161266,-26.893262485618138]]]}},{"type":"Feature","properties":{"name":"Passo Manso","source":"voronoi"},"geometry":{"type":"Polygon","coordinates":[[[-49.169494300000004,-26.930261914580456],[-49.13984614162871,-26.91698103550105],[-49.13300205739637,-26.89942547179245],[-49.16694008090047,-26.88067166302079],[-49.169494300000004,-26.881014534817563],[-49.169494300000004,-26.930261914580456]]]}},{"type":"Feature","properties":{"name":"Ponta Aguda","source":"voronoi"},"geometry":{"type":"Polygon","coordinates":[[[-49.06417728092949,-26.899466953475585],[-49.07276459219746,-26.912286642398787],[-49.039687290781586,-26.933684306643794],[-49.05371485561204,-26.90506727150369],[-49.06417728092949,-26.899466953475585]]]}},{"type":"Feature","properties":{"name":"Progresso","source":"voronoi"},"geometry":{"type":"Polygon","coordinates":[[[-49.065626841125344,-26.982349],[-49.06085438931632,-26.958745195702527],[-49.10336614922882,-26.96095576208247],[-49.11058497524903,-26.982349],[-49.065626841125344,-26.982349]]]}},{"type":"Feature","properties":{"name":"Salto Do Norte","source":"voronoi"},"geometry":{"type":"Polygon","coordinates":[[[-49.09513667325511,-26.864081805204208],[-49.100061102470434,-26.848339330602524],[-49.14005628585635,-26.86623923969608],[-49.14040734641176,-26.86744994538322],[-49.116455942365526,-26.888294102087738],[-49.11537401244557,-26.888298942470374],[-49.10276151475079,-26.88045411525516],[-49.09513667325511,-26.864081805204208]]]}},{"type":"Feature","properties":{"name":"Testo Salto","source":"voronoi"},"geometry":{"type":"Polygon","coordinates":[[[-49.169494300000004,-26.881014534817563],[-49.16694008090047,-26.88067166302079],[-49.14040734641176,-26.86744994538322],[-49.14005628585635,-26.86623923969608],[-49.14716732365855,-26.79138567949398],[-49.16562442764169,-26.756503586053316],[-49.169494300000004,-26.753788459424186],[-49.169494300000004,-26.881014534817563]]]}},{"type":"Feature","properties":{"name":"Tribess","source":"voronoi"},"geometry":{"type":"Polygon","coordinates":[[[-49.0242648,-26.824911917735285],[-49.062315174224395,-26.863108656746764],[-49.05681118077015,-26.880794867753526],[-49.03180938002082,-26.8839571973019],[-49.0242648,-26.881585486952382],[-49.0242648,-26.824911917735285]]]}},{"type":"Feature","properties":{"name":"Valparaiso","source":"voronoi"},"geometry":{"type":"Polygon","coordinates":[[[-49.06085438931632,-26.958745195702527],[-49.05825091917224,-26.954297659831898],[-49.10112681545588,-26.949816042331488],[-49.10336614922882,-26.96095576208247],[-49.06085438931632,-26.958745195702527]]]}},{"type":"Feature","properties":{"name":"Velha","source":"voronoi"},"geometry":{"type":"Polygon","coordinates":[[[-49.09745679449395,-26.92413939993876],[-49.11397000928001,-26.893791343845077],[-49.12112650457102,-26.9259321457543],[-49.114821192564946,-26.93203922640773],[-49.100026235402154,-26.93980863693523],[-49.094813738454775,-26.934005120514474],[-49.09745679449395,-26.92413939993876]]]}},{"type":"Feature","properties":{"name":"Velha Central","source":"voronoi"},"geometry":{"type":"Polygon","coordinates":[[[-49.12112650457102,-26.9259321457543],[-49.13984614162871,-26.91698103550105],[-49.169494300000004,-26.930261914580456],[-49.169494300000004,-26.95466172265012],[-49.114821192564946,-26.93203922640773],[-49.12112650457102,-26.9259321457543]]]}},{"type":"Feature","properties":{"name":"Velha Grande","source":"voronoi"},"geometry":{"type":"Polygon","coordinates":[[[-49.11058497524903,-26.982349],[-49.10336614922882,-26.96095576208247],[-49.10112681545588,-26.949816042331488],[-49.100026235402154,-26.93980863693523],[-49.114821192564946,-26.93203922640773],[-49.169494300000004,-26.95466172265012],[-49.169494300000004,-26.982349],[-49.11058497524903,-26.982349]]]}},{"type":"Feature","properties":{"name":"Vila Itoupava","source":"voronoi"},"geometry":{"type":"Polygon","coordinates":[[[-49.0242648,-26.7180526],[-49.169494300000004,-26.7180526],[-49.169494300000004,-26.753788459424186],[-49.16562442764169,-26.756503586053316],[-49.0242648,-26.79054618189815],[-49.0242648,-26.7180526]]]}},{"type":"Feature","properties":{"name":"Vila Nova","source":"voronoi"},"geometry":{"type":"Polygon","coordinates":[[[-49.082311180231436,-26.920934156938998],[-49.085068517841634,-26.895657753670204],[-49.090866618834866,-26.892708814794425],[-49.09745679449395,-26.92413939993876],[-49.094813738454775,-26.934005120514474],[-49.08795607057982,-26.931321427629438],[-49.082311180231436,-26.920934156938998]]]}},{"type":"Feature","properties":{"name":"Vorstadt","source":"voronoi"},"geometry":{"type":"Polygon","coordinates":[[[-49.0242648,-26.881585486952382],[-49.03180938002082,-26.8839571973019],[-49.05371485561204,-26.90506727150369],[-49.039687290781586,-26.933684306643794],[-49.037914103258814,-26.936731000984143],[-49.0242648,-26.93946873304499],[-49.0242648,-26.881585486952382]]]}}]}