{"type":"FeatureCollection","features":[{"type":"Feature","properties":{"name":"Centro","source":"voronoi"},"geometry":{"type":"Polygon","coordinates":[[[-53.092053,-26.685542297016664],[-53.1444521,-26.67149891331792],[-53.1444521,-26.7353087],[-53.092053,-26.7353087],[-53.092053,-26.685542297016664]]]}},{"type":"Feature","properties":{"name":"Linha Lamb","source":"voronoi"},"geometry":{"type":"Polygon","coordinates":[[[-53.092053,-26.6217325],[-53.1444521,-26.6217325],[-53.1444521,-26.67149891331792],[-53.092053,-26.685542297016664],[-53.092053,-26.6217325]]]}}]}