{"type":"FeatureCollection","features":[{"type":"Feature","properties":{"name":"Barbaqua","source":"voronoi"},"geometry":{"type":"Polygon","coordinates":[[[-49.5046702,-27.8153382],[-49.4728859,-27.8153382],[-49.4728859,-27.788102245044385],[-49.48877805,-27.7990422],[-49.5046702,-27.809982154955613],[-49.5046702,-27.8153382]]]}},{"type":"Feature","properties":{"name":"Canoas","source":"voronoi"},"geometry":{"type":"Polygon","coordinates":[[[-49.4728859,-27.7827462],[-49.5046702,-27.7827462],[-49.5046702,-27.809982154955613],[-49.48877805,-27.7990422],[-49.4728859,-27.788102245044385],[-49.4728859,-27.7827462]]]}}]}