{"type":"FeatureCollection","features":[{"type":"Feature","properties":{"name":"Bombas","source":"voronoi"},"geometry":{"type":"Polygon","coordinates":[[[-48.5378548,-27.1291845],[-48.5378548,-27.150668401489014],[-48.51669025646487,-27.156208249673355],[-48.49936458676459,-27.145169766367932],[-48.49373980163807,-27.1291845],[-48.5378548,-27.1291845]]]}},{"type":"Feature","properties":{"name":"Canto Grande","source":"voronoi"},"geometry":{"type":"Polygon","coordinates":[[[-48.4734766,-27.2093816],[-48.4734766,-27.179824619150665],[-48.47636228220321,-27.178966232006207],[-48.50687512121604,-27.184803132214768],[-48.528155397638706,-27.2093816],[-48.4734766,-27.2093816]]]}},{"type":"Feature","properties":{"name":"Centro","source":"voronoi"},"geometry":{"type":"Polygon","coordinates":[[[-48.4734766,-27.1291845],[-48.49373980163807,-27.1291845],[-48.49936458676459,-27.145169766367932],[-48.49277894276222,-27.166192950144026],[-48.47636228220321,-27.178966232006207],[-48.4734766,-27.179824619150665],[-48.4734766,-27.1291845]]]}},{"type":"Feature","properties":{"name":"Mariscal","source":"voronoi"},"geometry":{"type":"Polygon","coordinates":[[[-48.51277497694062,-27.173680640683802],[-48.50687512121604,-27.184803132214768],[-48.47636228220321,-27.178966232006207],[-48.49277894276222,-27.166192950144026],[-48.50983889716429,-27.165338786311942],[-48.51277497694062,-27.173680640683802]]]}},{"type":"Feature","properties":{"name":"Morrinhos","source":"voronoi"},"geometry":{"type":"Polygon","coordinates":[[[-48.51277497694062,-27.173680640683802],[-48.518671115703334,-27.174575957538085],[-48.52836967377598,-27.2093816],[-48.528155397638706,-27.2093816],[-48.50687512121604,-27.184803132214768],[-48.51277497694062,-27.173680640683802]]]}},{"type":"Feature","properties":{"name":"Sertãozinho","source":"voronoi"},"geometry":{"type":"Polygon","coordinates":[[[-48.51277497694062,-27.173680640683802],[-48.50983889716429,-27.165338786311942],[-48.51669025646487,-27.156208249673355],[-48.5378548,-27.150668401489014],[-48.5378548,-27.167072667104037],[-48.518671115703334,-27.174575957538085],[-48.51277497694062,-27.173680640683802]]]}},{"type":"Feature","properties":{"name":"Zé Amandio","source":"voronoi"},"geometry":{"type":"Polygon","coordinates":[[[-48.50983889716429,-27.165338786311942],[-48.49277894276222,-27.166192950144026],[-48.49936458676459,-27.145169766367932],[-48.51669025646487,-27.156208249673355],[-48.50983889716429,-27.165338786311942]]]}},{"type":"Feature","properties":{"name":"Zimbros","source":"voronoi"},"geometry":{"type":"Polygon","coordinates":[[[-48.5378548,-27.2093816],[-48.52836967377598,-27.2093816],[-48.518671115703334,-27.174575957538085],[-48.5378548,-27.167072667104037],[-48.5378548,-27.2093816]]]}}]}