{"type":"FeatureCollection","features":[{"type":"Feature","properties":{"name":"Águas Negras","source":"voronoi"},"geometry":{"type":"Polygon","coordinates":[[[-49.07664643355519,-27.211948200000002],[-49.07999633161421,-27.1469606],[-49.08583027738187,-27.1469606],[-49.129881822618124,-27.211948200000002],[-49.07664643355519,-27.211948200000002]]]}},{"type":"Feature","properties":{"name":"Barra Da Areia","source":"voronoi"},"geometry":{"type":"Polygon","coordinates":[[[-49.03020921998325,-27.211948200000002],[-49.054180675184234,-27.1469606],[-49.07999633161421,-27.1469606],[-49.07664643355519,-27.211948200000002],[-49.03020921998325,-27.211948200000002]]]}},{"type":"Feature","properties":{"name":"Lageado Alto","source":"voronoi"},"geometry":{"type":"Polygon","coordinates":[[[-49.148664000000004,-27.1469606],[-49.148664000000004,-27.211948200000002],[-49.129881822618124,-27.211948200000002],[-49.08583027738187,-27.1469606],[-49.148664000000004,-27.1469606]]]}},{"type":"Feature","properties":{"name":"Pedras Grandes","source":"voronoi"},"geometry":{"type":"Polygon","coordinates":[[[-49.054180675184234,-27.1469606],[-49.03020921998325,-27.211948200000002],[-48.992857799999996,-27.211948200000002],[-48.992857799999996,-27.1469606],[-49.054180675184234,-27.1469606]]]}}]}