{"type":"FeatureCollection","features":[{"type":"Feature","properties":{"name":"Alto Pinheiral","source":"voronoi"},"geometry":{"type":"Polygon","coordinates":[[[-49.15662327316077,-28.2783948736419],[-49.16175496990101,-28.26988246001427],[-49.16339478723789,-28.270899275094866],[-49.16539699831468,-28.27934254102881],[-49.157944902203106,-28.283111626417043],[-49.15662327316077,-28.2783948736419]]]}},{"type":"Feature","properties":{"name":"Alto Travessão","source":"voronoi"},"geometry":{"type":"Polygon","coordinates":[[[-49.0769244,-28.3075671],[-49.0769244,-28.29685305691941],[-49.11438328876242,-28.26875474527338],[-49.13850551625492,-28.29817112747251],[-49.14180639078812,-28.3075671],[-49.0769244,-28.3075671]]]}},{"type":"Feature","properties":{"name":"Centro","source":"voronoi"},"geometry":{"type":"Polygon","coordinates":[[[-49.16539699831468,-28.27934254102881],[-49.16339478723789,-28.270899275094866],[-49.17303795083132,-28.27009281593611],[-49.17562457975027,-28.27183803895565],[-49.16982002047997,-28.28166662304941],[-49.16539699831468,-28.27934254102881]]]}},{"type":"Feature","properties":{"name":"Floresta","source":"voronoi"},"geometry":{"type":"Polygon","coordinates":[[[-49.14650562564043,-28.272665980597132],[-49.15662327316077,-28.2783948736419],[-49.157944902203106,-28.283111626417043],[-49.14778330953543,-28.3075671],[-49.14180639078812,-28.3075671],[-49.13850551625492,-28.29817112747251],[-49.14650562564043,-28.272665980597132]]]}},{"type":"Feature","properties":{"name":"Nossa Senhora De Fátima","source":"voronoi"},"geometry":{"type":"Polygon","coordinates":[[[-49.16175496990101,-28.26988246001427],[-49.14593622469102,-28.247963700210132],[-49.14115586746935,-28.232300507996474],[-49.16685487447616,-28.231415855859872],[-49.17303795083132,-28.27009281593611],[-49.16339478723789,-28.270899275094866],[-49.16175496990101,-28.26988246001427]]]}},{"type":"Feature","properties":{"name":"Rio Bonito","source":"voronoi"},"geometry":{"type":"Polygon","coordinates":[[[-49.14650562564043,-28.272665980597132],[-49.13850551625492,-28.29817112747251],[-49.11438328876242,-28.26875474527338],[-49.12725187916901,-28.22724631602057],[-49.14115586746935,-28.232300507996474],[-49.14593622469102,-28.247963700210132],[-49.14650562564043,-28.272665980597132]]]}},{"type":"Feature","properties":{"name":"Rio Santo Antônio","source":"voronoi"},"geometry":{"type":"Polygon","coordinates":[[[-49.0769244,-28.182323399999998],[-49.088615213987445,-28.182323399999998],[-49.12725187916901,-28.22724631602057],[-49.11438328876242,-28.26875474527338],[-49.0769244,-28.29685305691941],[-49.0769244,-28.182323399999998]]]}},{"type":"Feature","properties":{"name":"São Basílio","source":"voronoi"},"geometry":{"type":"Polygon","coordinates":[[[-49.14778330953543,-28.3075671],[-49.157944902203106,-28.283111626417043],[-49.16539699831468,-28.27934254102881],[-49.16982002047997,-28.28166662304941],[-49.180515307687976,-28.3075671],[-49.14778330953543,-28.3075671]]]}},{"type":"Feature","properties":{"name":"São Francisco De Assis","source":"voronoi"},"geometry":{"type":"Polygon","coordinates":[[[-49.14650562564043,-28.272665980597132],[-49.14593622469102,-28.247963700210132],[-49.16175496990101,-28.26988246001427],[-49.15662327316077,-28.2783948736419],[-49.14650562564043,-28.272665980597132]]]}},{"type":"Feature","properties":{"name":"São Maurício","source":"voronoi"},"geometry":{"type":"Polygon","coordinates":[[[-49.1914219,-28.182323399999998],[-49.1914219,-28.227447786189312],[-49.16685487447616,-28.231415855859872],[-49.14115586746935,-28.232300507996474],[-49.12725187916901,-28.22724631602057],[-49.088615213987445,-28.182323399999998],[-49.1914219,-28.182323399999998]]]}},{"type":"Feature","properties":{"name":"União","source":"voronoi"},"geometry":{"type":"Polygon","coordinates":[[[-49.1914219,-28.3075671],[-49.180515307687976,-28.3075671],[-49.16982002047997,-28.28166662304941],[-49.17562457975027,-28.27183803895565],[-49.1914219,-28.27252418736561],[-49.1914219,-28.3075671]]]}},{"type":"Feature","properties":{"name":"Vila Nova","source":"voronoi"},"geometry":{"type":"Polygon","coordinates":[[[-49.1914219,-28.27252418736561],[-49.17562457975027,-28.27183803895565],[-49.17303795083132,-28.27009281593611],[-49.16685487447616,-28.231415855859872],[-49.1914219,-28.227447786189312],[-49.1914219,-28.27252418736561]]]}}]}