{"type":"FeatureCollection","features":[{"type":"Feature","properties":{"name":"Km 15","source":"voronoi"},"geometry":{"type":"Polygon","coordinates":[[[-49.867145,-27.397215],[-49.867145,-27.343578],[-49.924512799829245,-27.343578],[-49.905106108635664,-27.397215],[-49.867145,-27.397215]]]}},{"type":"Feature","properties":{"name":"Serril","source":"voronoi"},"geometry":{"type":"Polygon","coordinates":[[[-49.905106108635664,-27.397215],[-49.924512799829245,-27.343578],[-49.9624739,-27.343578],[-49.9624739,-27.397215],[-49.905106108635664,-27.397215]]]}}]}