{"type":"FeatureCollection","features":[{"type":"Feature","properties":{"name":"Galegos","source":"voronoi"},"geometry":{"type":"Polygon","coordinates":[[[-50.7454444,-27.3896288],[-50.7454444,-27.350032657470337],[-50.806320033554876,-27.35857808291429],[-50.822552757637865,-27.3896288],[-50.7454444,-27.3896288]]]}},{"type":"Feature","properties":{"name":"Marombas","source":"voronoi"},"geometry":{"type":"Polygon","coordinates":[[[-50.7454444,-27.315068099999998],[-50.80607294034121,-27.315068099999998],[-50.806320033554876,-27.35857808291429],[-50.7454444,-27.350032657470337],[-50.7454444,-27.315068099999998]]]}},{"type":"Feature","properties":{"name":"Palmares","source":"voronoi"},"geometry":{"type":"Polygon","coordinates":[[[-50.8606822,-27.315068099999998],[-50.8606822,-27.3896288],[-50.822552757637865,-27.3896288],[-50.806320033554876,-27.35857808291429],[-50.80607294034121,-27.315068099999998],[-50.8606822,-27.315068099999998]]]}}]}