{"type":"FeatureCollection","features":[{"type":"Feature","properties":{"name":"Águas Claras","source":"voronoi"},"geometry":{"type":"Polygon","coordinates":[[[-48.90957965099405,-27.130122262982095],[-48.91149286543175,-27.157719296191658],[-48.90726339838222,-27.158934315147537],[-48.89500204327457,-27.15564467741953],[-48.89506575595609,-27.12675456917574],[-48.898214003443805,-27.12258801251495],[-48.90957965099405,-27.130122262982095]]]}},{"type":"Feature","properties":{"name":"Azambuja","source":"voronoi"},"geometry":{"type":"Polygon","coordinates":[[[-48.91524444700277,-27.107729688887844],[-48.93389739928226,-27.12001634638034],[-48.9314375087064,-27.129093474898323],[-48.90957965099405,-27.130122262982095],[-48.898214003443805,-27.12258801251495],[-48.89595693475601,-27.111668796178165],[-48.91524444700277,-27.107729688887844]]]}},{"type":"Feature","properties":{"name":"Cedrinho","source":"voronoi"},"geometry":{"type":"Polygon","coordinates":[[[-48.94125960171272,-27.1902098],[-48.914542133709105,-27.158622520475852],[-48.93794676587601,-27.13993653593458],[-48.94268292824488,-27.142445008744225],[-48.948001677562694,-27.1902098],[-48.94125960171272,-27.1902098]]]}},{"type":"Feature","properties":{"name":"Cedro Alto","source":"voronoi"},"geometry":{"type":"Polygon","coordinates":[[[-48.89595693475601,-27.111668796178165],[-48.898214003443805,-27.12258801251495],[-48.89506575595609,-27.12675456917574],[-48.87258988486071,-27.141479442180312],[-48.8750961843819,-27.100698127706256],[-48.89182659134615,-27.10608021016352],[-48.89595693475601,-27.111668796178165]]]}},{"type":"Feature","properties":{"name":"Centro","source":"voronoi"},"geometry":{"type":"Polygon","coordinates":[[[-48.91524444700277,-27.107729688887844],[-48.89595693475601,-27.111668796178165],[-48.89182659134615,-27.10608021016352],[-48.90414701959768,-27.088172912947584],[-48.90426339920783,-27.088122647686493],[-48.930475111806636,-27.090920335499103],[-48.91524444700277,-27.107729688887844]]]}},{"type":"Feature","properties":{"name":"Dom Joaquim","source":"voronoi"},"geometry":{"type":"Polygon","coordinates":[[[-48.948001677562694,-27.1902098],[-48.94268292824488,-27.142445008744225],[-48.9716726,-27.134349128505352],[-48.9716726,-27.1902098],[-48.948001677562694,-27.1902098]]]}},{"type":"Feature","properties":{"name":"Guarani","source":"voronoi"},"geometry":{"type":"Polygon","coordinates":[[[-48.9716726,-27.108172148933367],[-48.935855452802556,-27.117454232905526],[-48.93193772248457,-27.090445924926723],[-48.9716726,-27.045886679855276],[-48.9716726,-27.108172148933367]]]}},{"type":"Feature","properties":{"name":"Jardim Maluche","source":"voronoi"},"geometry":{"type":"Polygon","coordinates":[[[-48.91524444700277,-27.107729688887844],[-48.930475111806636,-27.090920335499103],[-48.93193772248457,-27.090445924926723],[-48.935855452802556,-27.117454232905526],[-48.93389739928226,-27.12001634638034],[-48.91524444700277,-27.107729688887844]]]}},{"type":"Feature","properties":{"name":"Limeira Baixa","source":"voronoi"},"geometry":{"type":"Polygon","coordinates":[[[-48.8506673,-27.057857728732902],[-48.86884103322479,-27.05967084962389],[-48.878477196187845,-27.07595846404003],[-48.86872709866841,-27.097564294177356],[-48.8506673,-27.098970351753024],[-48.8506673,-27.057857728732902]]]}},{"type":"Feature","properties":{"name":"Limoeiro","source":"voronoi"},"geometry":{"type":"Polygon","coordinates":[[[-48.89687745310381,-27.057596641570253],[-48.87325810610997,-27.05572119043424],[-48.8759898379903,-27.03644805858567],[-48.908924055347725,-27.04516593965087],[-48.89687745310381,-27.057596641570253]]]}},{"type":"Feature","properties":{"name":"Loteamento Planalto","source":"voronoi"},"geometry":{"type":"Polygon","coordinates":[[[-48.8506673,-27.014952297733828],[-48.8759898379903,-27.03644805858567],[-48.87325810610997,-27.05572119043424],[-48.86884103322479,-27.05967084962389],[-48.8506673,-27.057857728732902],[-48.8506673,-27.014952297733828]]]}},{"type":"Feature","properties":{"name":"Nova Brasília","source":"voronoi"},"geometry":{"type":"Polygon","coordinates":[[[-48.90414701959768,-27.088172912947584],[-48.89182659134615,-27.10608021016352],[-48.8750961843819,-27.100698127706256],[-48.86872709866841,-27.097564294177356],[-48.878477196187845,-27.07595846404003],[-48.89193351736628,-27.067933213568143],[-48.90414701959768,-27.088172912947584]]]}},{"type":"Feature","properties":{"name":"Paquetá","source":"voronoi"},"geometry":{"type":"Polygon","coordinates":[[[-48.90957965099405,-27.130122262982095],[-48.9314375087064,-27.129093474898323],[-48.93794676587601,-27.13993653593458],[-48.914542133709105,-27.158622520475852],[-48.91149286543175,-27.157719296191658],[-48.90957965099405,-27.130122262982095]]]}},{"type":"Feature","properties":{"name":"Poço Fundo","source":"voronoi"},"geometry":{"type":"Polygon","coordinates":[[[-48.8506673,-27.098970351753024],[-48.86872709866841,-27.097564294177356],[-48.8750961843819,-27.100698127706256],[-48.87258988486071,-27.141479442180312],[-48.8506673,-27.164121597384394],[-48.8506673,-27.098970351753024]]]}},{"type":"Feature","properties":{"name":"Ponta Russa","source":"voronoi"},"geometry":{"type":"Polygon","coordinates":[[[-48.89506575595609,-27.12675456917574],[-48.89500204327457,-27.15564467741953],[-48.8506673,-27.16473239051532],[-48.8506673,-27.164121597384394],[-48.87258988486071,-27.141479442180312],[-48.89506575595609,-27.12675456917574]]]}},{"type":"Feature","properties":{"name":"Rio Branco","source":"voronoi"},"geometry":{"type":"Polygon","coordinates":[[[-48.935855452802556,-27.117454232905526],[-48.9716726,-27.108172148933367],[-48.9716726,-27.134349128505352],[-48.94268292824488,-27.142445008744225],[-48.93794676587601,-27.13993653593458],[-48.9314375087064,-27.129093474898323],[-48.93389739928226,-27.12001634638034],[-48.935855452802556,-27.117454232905526]]]}},{"type":"Feature","properties":{"name":"Santa Luzia","source":"voronoi"},"geometry":{"type":"Polygon","coordinates":[[[-48.8506673,-27.1902098],[-48.8506673,-27.16473239051532],[-48.89500204327457,-27.15564467741953],[-48.90726339838222,-27.158934315147537],[-48.89523370043242,-27.1902098],[-48.8506673,-27.1902098]]]}},{"type":"Feature","properties":{"name":"Santa Terezinha","source":"voronoi"},"geometry":{"type":"Polygon","coordinates":[[[-48.89193351736628,-27.067933213568143],[-48.878477196187845,-27.07595846404003],[-48.86884103322479,-27.05967084962389],[-48.87325810610997,-27.05572119043424],[-48.89687745310381,-27.057596641570253],[-48.89193351736628,-27.067933213568143]]]}},{"type":"Feature","properties":{"name":"São Luiz","source":"voronoi"},"geometry":{"type":"Polygon","coordinates":[[[-48.930475111806636,-27.090920335499103],[-48.90426339920783,-27.088122647686493],[-48.93452214997031,-27.035697922920882],[-48.9716726,-27.01542295955503],[-48.9716726,-27.045886679855276],[-48.93193772248457,-27.090445924926723],[-48.930475111806636,-27.090920335499103]]]}},{"type":"Feature","properties":{"name":"Steffen","source":"voronoi"},"geometry":{"type":"Polygon","coordinates":[[[-48.90414701959768,-27.088172912947584],[-48.89193351736628,-27.067933213568143],[-48.89687745310381,-27.057596641570253],[-48.908924055347725,-27.04516593965087],[-48.93452214997031,-27.035697922920882],[-48.90426339920783,-27.088122647686493],[-48.90414701959768,-27.088172912947584]]]}},{"type":"Feature","properties":{"name":"Volta Grande","source":"voronoi"},"geometry":{"type":"Polygon","coordinates":[[[-48.8506673,-27.011356499999998],[-48.9716726,-27.011356499999998],[-48.9716726,-27.01542295955503],[-48.93452214997031,-27.035697922920882],[-48.908924055347725,-27.04516593965087],[-48.8759898379903,-27.03644805858567],[-48.8506673,-27.014952297733828],[-48.8506673,-27.011356499999998]]]}},{"type":"Feature","properties":{"name":"Zantão","source":"voronoi"},"geometry":{"type":"Polygon","coordinates":[[[-48.89523370043242,-27.1902098],[-48.90726339838222,-27.158934315147537],[-48.91149286543175,-27.157719296191658],[-48.914542133709105,-27.158622520475852],[-48.94125960171272,-27.1902098],[-48.89523370043242,-27.1902098]]]}}]}