{"type":"FeatureCollection","features":[{"type":"Feature","properties":{"name":"Areias","source":"voronoi"},"geometry":{"type":"Polygon","coordinates":[[[-48.65941816113111,-27.02682479079565],[-48.69387551818358,-27.077467512032683],[-48.66741334277433,-27.113478100000002],[-48.65780647364635,-27.113478100000002],[-48.646700919269165,-27.027636809029158],[-48.650222707267574,-27.02340934666426],[-48.65941816113111,-27.02682479079565]]]}},{"type":"Feature","properties":{"name":"Braco","source":"voronoi"},"geometry":{"type":"Polygon","coordinates":[[[-48.7595522,-27.113478100000002],[-48.66741334277433,-27.113478100000002],[-48.69387551818358,-27.077467512032683],[-48.7595522,-27.004468352127894],[-48.7595522,-27.113478100000002]]]}},{"type":"Feature","properties":{"name":"Cedro","source":"voronoi"},"geometry":{"type":"Polygon","coordinates":[[[-48.65079001814029,-27.017446994724676],[-48.63958006087673,-26.998739294544567],[-48.675563039233246,-27.005191367236616],[-48.65079001814029,-27.017446994724676]]]}},{"type":"Feature","properties":{"name":"Joao Da Costa","source":"voronoi"},"geometry":{"type":"Polygon","coordinates":[[[-48.7595522,-26.992851444296182],[-48.65941816113111,-27.02682479079565],[-48.650222707267574,-27.02340934666426],[-48.65079001814029,-27.017446994724676],[-48.675563039233246,-27.005191367236616],[-48.748159828410714,-26.9838609],[-48.7595522,-26.9838609],[-48.7595522,-26.992851444296182]]]}},{"type":"Feature","properties":{"name":"Monte Alegre","source":"voronoi"},"geometry":{"type":"Polygon","coordinates":[[[-48.748159828410714,-26.9838609],[-48.675563039233246,-27.005191367236616],[-48.63958006087673,-26.998739294544567],[-48.62677190858239,-26.9838609],[-48.748159828410714,-26.9838609]]]}},{"type":"Feature","properties":{"name":"Rio Pequeno","source":"voronoi"},"geometry":{"type":"Polygon","coordinates":[[[-48.6219197,-27.113478100000002],[-48.6219197,-27.027826970185007],[-48.646700919269165,-27.027636809029158],[-48.65780647364635,-27.113478100000002],[-48.6219197,-27.113478100000002]]]}},{"type":"Feature","properties":{"name":"Santa Regina","source":"voronoi"},"geometry":{"type":"Polygon","coordinates":[[[-48.65941816113111,-27.02682479079565],[-48.7595522,-26.992851444296182],[-48.7595522,-27.004468352127894],[-48.69387551818358,-27.077467512032683],[-48.65941816113111,-27.02682479079565]]]}},{"type":"Feature","properties":{"name":"São Francisco De Assis","source":"voronoi"},"geometry":{"type":"Polygon","coordinates":[[[-48.6219197,-26.9838609],[-48.62677190858239,-26.9838609],[-48.63958006087673,-26.998739294544567],[-48.65079001814029,-27.017446994724676],[-48.650222707267574,-27.02340934666426],[-48.646700919269165,-27.027636809029158],[-48.6219197,-27.027826970185007],[-48.6219197,-26.9838609]]]}}]}