{"type":"FeatureCollection","features":[{"type":"Feature","properties":{"name":"Avenquinha","source":"voronoi"},"geometry":{"type":"Polygon","coordinates":[[[-49.2430284,-26.2064729],[-49.2430284,-26.139757357638928],[-49.27143593520021,-26.139771711873173],[-49.25752063908002,-26.2064729],[-49.2430284,-26.2064729]]]}},{"type":"Feature","properties":{"name":"Bateias De Baixo","source":"voronoi"},"geometry":{"type":"Polygon","coordinates":[[[-49.2430284,-26.0742006],[-49.2785101,-26.0742006],[-49.2785101,-26.13939607781232],[-49.27143593520021,-26.139771711873173],[-49.2430284,-26.139757357638928],[-49.2430284,-26.0742006]]]}},{"type":"Feature","properties":{"name":"Centro","source":"voronoi"},"geometry":{"type":"Polygon","coordinates":[[[-49.2785101,-26.2064729],[-49.25752063908002,-26.2064729],[-49.27143593520021,-26.139771711873173],[-49.2785101,-26.13939607781232],[-49.2785101,-26.2064729]]]}}]}