{"type":"FeatureCollection","features":[{"type":"Feature","properties":{"name":"Barra Do Imigrante","source":"voronoi"},"geometry":{"type":"Polygon","coordinates":[[[-50.7745765,-27.9222303],[-50.7441178,-27.9222303],[-50.7441178,-27.904609682851575],[-50.756071937374905,-27.90422223665379],[-50.7745765,-27.919877133168804],[-50.7745765,-27.9222303]]]}},{"type":"Feature","properties":{"name":"Centro","source":"voronoi"},"geometry":{"type":"Polygon","coordinates":[[[-50.7441178,-27.8860102],[-50.7745765,-27.8860102],[-50.7745765,-27.902787524697434],[-50.756071937374905,-27.90422223665379],[-50.7441178,-27.904609682851575],[-50.7441178,-27.8860102]]]}},{"type":"Feature","properties":{"name":"Lago Azul","source":"voronoi"},"geometry":{"type":"Polygon","coordinates":[[[-50.7745765,-27.919877133168804],[-50.756071937374905,-27.90422223665379],[-50.7745765,-27.902787524697434],[-50.7745765,-27.919877133168804]]]}}]}