{"type":"FeatureCollection","features":[{"type":"Feature","properties":{"name":"Assentamento 30 De Outubro","source":"voronoi"},"geometry":{"type":"Polygon","coordinates":[[[-51.22942800973019,-27.398464268428228],[-51.21958189935301,-27.411845147778084],[-51.218187525030004,-27.399070175509795],[-51.22300900740392,-27.395468128381275],[-51.22942800973019,-27.398464268428228]]]}},{"type":"Feature","properties":{"name":"Boa Vista","source":"voronoi"},"geometry":{"type":"Polygon","coordinates":[[[-51.195455,-27.3487503],[-51.23399924323123,-27.3487503],[-51.22101228024282,-27.38336596848476],[-51.21580449745089,-27.388779553549202],[-51.195455,-27.388144388582635],[-51.195455,-27.3487503]]]}},{"type":"Feature","properties":{"name":"Centro","source":"voronoi"},"geometry":{"type":"Polygon","coordinates":[[[-51.217766470183655,-27.4199575],[-51.21958189935301,-27.411845147778084],[-51.22942800973019,-27.398464268428228],[-51.230199689692846,-27.398302246844082],[-51.235213661733624,-27.40813815297328],[-51.236307023489104,-27.4199575],[-51.217766470183655,-27.4199575]]]}},{"type":"Feature","properties":{"name":"Jardim Bela Vista","source":"voronoi"},"geometry":{"type":"Polygon","coordinates":[[[-51.195455,-27.4199575],[-51.195455,-27.40098134766697],[-51.213109138508095,-27.395792379264176],[-51.218187525030004,-27.399070175509795],[-51.21958189935301,-27.411845147778084],[-51.217766470183655,-27.4199575],[-51.195455,-27.4199575]]]}},{"type":"Feature","properties":{"name":"Nossa Senhora Aparecida","source":"voronoi"},"geometry":{"type":"Polygon","coordinates":[[[-51.195455,-27.388144388582635],[-51.21580449745089,-27.388779553549202],[-51.213109138508095,-27.395792379264176],[-51.195455,-27.40098134766697],[-51.195455,-27.388144388582635]]]}},{"type":"Feature","properties":{"name":"Nossa Senhora De Lourdes","source":"voronoi"},"geometry":{"type":"Polygon","coordinates":[[[-51.22942800973019,-27.398464268428228],[-51.22300900740392,-27.395468128381275],[-51.22101228024282,-27.38336596848476],[-51.23399924323123,-27.3487503],[-51.27594427534193,-27.3487503],[-51.25306921797507,-27.375456985835037],[-51.230199689692846,-27.398302246844082],[-51.22942800973019,-27.398464268428228]]]}},{"type":"Feature","properties":{"name":"Pinhal Preto","source":"voronoi"},"geometry":{"type":"Polygon","coordinates":[[[-51.4051912,-27.3487503],[-51.4051912,-27.4199575],[-51.32490703003289,-27.4199575],[-51.30580977047074,-27.3487503],[-51.4051912,-27.3487503]]]}},{"type":"Feature","properties":{"name":"Santo Antônio","source":"voronoi"},"geometry":{"type":"Polygon","coordinates":[[[-51.235213661733624,-27.40813815297328],[-51.230199689692846,-27.398302246844082],[-51.25306921797507,-27.375456985835037],[-51.235213661733624,-27.40813815297328]]]}},{"type":"Feature","properties":{"name":"São Sebastião","source":"voronoi"},"geometry":{"type":"Polygon","coordinates":[[[-51.22300900740392,-27.395468128381275],[-51.218187525030004,-27.399070175509795],[-51.213109138508095,-27.395792379264176],[-51.21580449745089,-27.388779553549202],[-51.22101228024282,-27.38336596848476],[-51.22300900740392,-27.395468128381275]]]}},{"type":"Feature","properties":{"name":"Senhor Bom Jesus","source":"voronoi"},"geometry":{"type":"Polygon","coordinates":[[[-51.236307023489104,-27.4199575],[-51.235213661733624,-27.40813815297328],[-51.25306921797507,-27.375456985835037],[-51.27594427534193,-27.3487503],[-51.30580977047074,-27.3487503],[-51.32490703003289,-27.4199575],[-51.236307023489104,-27.4199575]]]}}]}