{"type":"FeatureCollection","features":[{"type":"Feature","properties":{"name":"Areiao","source":"voronoi"},"geometry":{"type":"Polygon","coordinates":[[[-48.8027627,-27.3130402],[-48.7483181,-27.3130402],[-48.7483181,-27.29233783952374],[-48.76186069865524,-27.28459928474699],[-48.8027627,-27.284944170018978],[-48.8027627,-27.3130402]]]}},{"type":"Feature","properties":{"name":"Cobre","source":"voronoi"},"geometry":{"type":"Polygon","coordinates":[[[-48.7483181,-27.240652],[-48.79052047833407,-27.240652],[-48.76186069865524,-27.28459928474699],[-48.7483181,-27.29233783952374],[-48.7483181,-27.240652]]]}},{"type":"Feature","properties":{"name":"India","source":"voronoi"},"geometry":{"type":"Polygon","coordinates":[[[-48.8027627,-27.240652],[-48.8027627,-27.284944170018978],[-48.76186069865524,-27.28459928474699],[-48.79052047833407,-27.240652],[-48.8027627,-27.240652]]]}}]}