{"type":"FeatureCollection","features":[{"type":"Feature","properties":{"name":"Água Verde","source":"voronoi"},"geometry":{"type":"Polygon","coordinates":[[[-50.431040655400025,-26.159919],[-50.38319832257419,-26.2159325],[-50.38183340678961,-26.2159325],[-50.38640819605228,-26.159919],[-50.431040655400025,-26.159919]]]}},{"type":"Feature","properties":{"name":"Campo D'água Verde","source":"voronoi"},"geometry":{"type":"Polygon","coordinates":[[[-50.3632031,-26.2159325],[-50.3632031,-26.159919],[-50.38640819605228,-26.159919],[-50.38183340678961,-26.2159325],[-50.3632031,-26.2159325]]]}},{"type":"Feature","properties":{"name":"Felipe Schmidt","source":"voronoi"},"geometry":{"type":"Polygon","coordinates":[[[-50.7004606,-26.159919],[-50.7004606,-26.2159325],[-50.55461827686866,-26.2159325],[-50.55141957178547,-26.159919],[-50.7004606,-26.159919]]]}},{"type":"Feature","properties":{"name":"Piedade","source":"voronoi"},"geometry":{"type":"Polygon","coordinates":[[[-50.38319832257419,-26.2159325],[-50.431040655400025,-26.159919],[-50.55141957178547,-26.159919],[-50.55461827686866,-26.2159325],[-50.38319832257419,-26.2159325]]]}}]}