{"type":"FeatureCollection","features":[{"type":"Feature","properties":{"name":"Alto Bonito","source":"voronoi"},"geometry":{"type":"Polygon","coordinates":[[[-51.007390106484266,-26.781417667756518],[-51.01541839294196,-26.77325329905667],[-51.0238869017825,-26.7800501249675],[-51.025266024162875,-26.787573086808507],[-51.007390106484266,-26.781417667756518]]]}},{"type":"Feature","properties":{"name":"Bello","source":"voronoi"},"geometry":{"type":"Polygon","coordinates":[[[-51.00293173005103,-26.781721838431668],[-50.99691940277814,-26.800946800000002],[-50.98859143700137,-26.800946800000002],[-50.98782611856755,-26.79719593907589],[-50.99169558602616,-26.76667498523286],[-50.99929751298707,-26.770268739194783],[-51.00293173005103,-26.781721838431668]]]}},{"type":"Feature","properties":{"name":"Berger","source":"voronoi"},"geometry":{"type":"Polygon","coordinates":[[[-50.99691940277814,-26.800946800000002],[-51.00293173005103,-26.781721838431668],[-51.007390106484266,-26.781417667756518],[-51.025266024162875,-26.787573086808507],[-51.031033982453785,-26.800946800000002],[-50.99691940277814,-26.800946800000002]]]}},{"type":"Feature","properties":{"name":"Centro","source":"voronoi"},"geometry":{"type":"Polygon","coordinates":[[[-51.007390106484266,-26.781417667756518],[-51.00293173005103,-26.781721838431668],[-50.99929751298707,-26.770268739194783],[-51.01121958462677,-26.767109483767765],[-51.01541839294196,-26.77325329905667],[-51.007390106484266,-26.781417667756518]]]}},{"type":"Feature","properties":{"name":"Der","source":"voronoi"},"geometry":{"type":"Polygon","coordinates":[[[-51.01541839294196,-26.77325329905667],[-51.01121958462677,-26.767109483767765],[-51.02376864002601,-26.7448265],[-51.04052554059941,-26.7448265],[-51.0238869017825,-26.7800501249675],[-51.01541839294196,-26.77325329905667]]]}},{"type":"Feature","properties":{"name":"Dos Municípios","source":"voronoi"},"geometry":{"type":"Polygon","coordinates":[[[-51.0495989,-26.800946800000002],[-51.031033982453785,-26.800946800000002],[-51.025266024162875,-26.787573086808507],[-51.0238869017825,-26.7800501249675],[-51.04052554059941,-26.7448265],[-51.0495989,-26.7448265],[-51.0495989,-26.800946800000002]]]}},{"type":"Feature","properties":{"name":"Nossa Senhora Salete","source":"voronoi"},"geometry":{"type":"Polygon","coordinates":[[[-51.02376864002601,-26.7448265],[-51.01121958462677,-26.767109483767765],[-50.99929751298707,-26.770268739194783],[-50.99169558602616,-26.76667498523286],[-50.96942168841961,-26.7448265],[-51.02376864002601,-26.7448265]]]}},{"type":"Feature","properties":{"name":"Rancho Fundo","source":"voronoi"},"geometry":{"type":"Polygon","coordinates":[[[-50.96942168841961,-26.7448265],[-50.99169558602616,-26.76667498523286],[-50.98782611856755,-26.79719593907589],[-50.96027891976945,-26.7448265],[-50.96942168841961,-26.7448265]]]}},{"type":"Feature","properties":{"name":"Sao Cristovao","source":"voronoi"},"geometry":{"type":"Polygon","coordinates":[[[-50.9601779,-26.800946800000002],[-50.9601779,-26.7448265],[-50.96027891976945,-26.7448265],[-50.98782611856755,-26.79719593907589],[-50.98859143700137,-26.800946800000002],[-50.9601779,-26.800946800000002]]]}}]}