{"type":"FeatureCollection","features":[{"type":"Feature","properties":{"name":"Santa Terezinha"},"geometry":{"type":"Polygon","coordinates":[[[-48.993940924319716,-26.906177518468155],[-48.95561520019803,-26.875853889007693],[-48.94242158781051,-26.81024472],[-48.94970629604355,-26.81024472],[-49.020622809604355,-26.876848880917482],[-48.993940924319716,-26.906177518468155]]]}},{"type":"Feature","properties":{"name":"Gasparinho"},"geometry":{"type":"Polygon","coordinates":[[[-48.96531222417074,-26.94245712617006],[-48.971130050781035,-26.94272887491021],[-48.985450663978675,-26.972033744777935],[-48.946794508855646,-26.986931751313065],[-48.930790744148354,-26.964692216070567],[-48.95558977712162,-26.94571145238335],[-48.96531222417074,-26.94245712617006]]]}},{"type":"Feature","properties":{"name":"Sete De Setembro"},"geometry":{"type":"Polygon","coordinates":[[[-48.947278465653596,-26.92297731796077],[-48.918707033420134,-26.958076488314262],[-48.89142693832912,-26.948870295304697],[-48.889823933053236,-26.947944709684794],[-48.94726761897157,-26.90358514213958],[-48.94803475848019,-26.919975928046117],[-48.947278465653596,-26.92297731796077]]]}},{"type":"Feature","properties":{"name":"Belchior Alto"},"geometry":{"type":"Polygon","coordinates":[[[-48.947278465653596,-26.92297731796077],[-48.95558977712162,-26.94571145238335],[-48.930790744148354,-26.964692216070567],[-48.918707033420134,-26.958076488314262],[-48.947278465653596,-26.92297731796077]]]}},{"type":"Feature","properties":{"name":"Coloninha"},"geometry":{"type":"Polygon","coordinates":[[[-48.96110597568822,-26.930844005842783],[-48.96794151026201,-26.91307433733538],[-48.982091980121886,-26.930480751024103],[-48.971130050781035,-26.94272887491021],[-48.96531222417074,-26.94245712617006],[-48.96110597568822,-26.930844005842783]]]}},{"type":"Feature","properties":{"name":"Bateias"},"geometry":{"type":"Polygon","coordinates":[[[-48.930790744148354,-26.964692216070567],[-48.946794508855646,-26.986931751313065],[-48.94445055545176,-27.04277688],[-48.91594353428345,-27.04277688],[-48.89142693832912,-26.948870295304697],[-48.918707033420134,-26.958076488314262],[-48.930790744148354,-26.964692216070567]]]}},{"type":"Feature","properties":{"name":"Barracao"},"geometry":{"type":"Polygon","coordinates":[[[-48.85109027,-27.04277688],[-48.85109027,-26.93586596905466],[-48.889823933053236,-26.947944709684794],[-48.89142693832912,-26.948870295304697],[-48.91594353428345,-27.04277688],[-48.85109027,-27.04277688]]]}},{"type":"Feature","properties":{"name":"Lagoa"},"geometry":{"type":"Polygon","coordinates":[[[-48.85109027,-26.81024472],[-48.94242158781051,-26.81024472],[-48.95561520019803,-26.875853889007693],[-48.95459352504311,-26.8871826714266],[-48.94726761897157,-26.90358514213958],[-48.889823933053236,-26.947944709684794],[-48.85109027,-26.93586596905466],[-48.85109027,-26.81024472]]]}},{"type":"Feature","properties":{"name":"Margem Esquerda"},"geometry":{"type":"Polygon","coordinates":[[[-48.96110597568822,-26.930844005842783],[-48.94803475848019,-26.919975928046117],[-48.94726761897157,-26.90358514213958],[-48.95459352504311,-26.8871826714266],[-48.96794151026201,-26.91307433733538],[-48.96110597568822,-26.930844005842783]]]}},{"type":"Feature","properties":{"name":"Centro"},"geometry":{"type":"Polygon","coordinates":[[[-48.96110597568822,-26.930844005842783],[-48.96531222417074,-26.94245712617006],[-48.95558977712162,-26.94571145238335],[-48.947278465653596,-26.92297731796077],[-48.94803475848019,-26.919975928046117],[-48.96110597568822,-26.930844005842783]]]}},{"type":"Feature","properties":{"name":"Gaspar Grande"},"geometry":{"type":"Polygon","coordinates":[[[-48.982091980121886,-26.930480751024103],[-49.00542134587888,-26.926987505849002],[-49.0421005881593,-26.94240613539743],[-49.009025345054745,-26.975674513771043],[-48.985450663978675,-26.972033744777935],[-48.971130050781035,-26.94272887491021],[-48.982091980121886,-26.930480751024103]]]}},{"type":"Feature","properties":{"name":"Gaspar Alto"},"geometry":{"type":"Polygon","coordinates":[[[-49.00851859711191,-27.04277688],[-49.009025345054745,-26.975674513771043],[-49.0421005881593,-26.94240613539743],[-49.08158323,-26.92946601022699],[-49.08158323,-27.04277688],[-49.00851859711191,-27.04277688]]]}},{"type":"Feature","properties":{"name":"Figueira"},"geometry":{"type":"Polygon","coordinates":[[[-48.982091980121886,-26.930480751024103],[-48.96794151026201,-26.91307433733538],[-48.95459352504311,-26.8871826714266],[-48.95561520019803,-26.875853889007693],[-48.993940924319716,-26.906177518468155],[-49.00542134587888,-26.926987505849002],[-48.982091980121886,-26.930480751024103]]]}},{"type":"Feature","properties":{"name":"Belchior Central"},"geometry":{"type":"Polygon","coordinates":[[[-49.08158323,-26.81024472],[-49.08158323,-26.914730137525368],[-49.020622809604355,-26.876848880917482],[-48.94970629604355,-26.81024472],[-49.08158323,-26.81024472]]]}},{"type":"Feature","properties":{"name":"Alto Gasparinho"},"geometry":{"type":"Polygon","coordinates":[[[-48.985450663978675,-26.972033744777935],[-49.009025345054745,-26.975674513771043],[-49.00851859711191,-27.04277688],[-48.94445055545176,-27.04277688],[-48.946794508855646,-26.986931751313065],[-48.985450663978675,-26.972033744777935]]]}},{"type":"Feature","properties":{"name":"Bela Vista"},"geometry":{"type":"Polygon","coordinates":[[[-48.993940924319716,-26.906177518468155],[-49.020622809604355,-26.876848880917482],[-49.08158323,-26.914730137525368],[-49.08158323,-26.92946601022699],[-49.0421005881593,-26.94240613539743],[-49.00542134587888,-26.926987505849002],[-48.993940924319716,-26.906177518468155]]]}}]}