{"type":"FeatureCollection","features":[{"type":"Feature","properties":{"name":"Vargem Grande"},"geometry":{"type":"Polygon","coordinates":[[[-48.82320211667466,-27.74427728],[-48.85966641216947,-27.635450094209585],[-48.88615042886599,-27.672606291090652],[-48.86458620156878,-27.74427728],[-48.82320211667466,-27.74427728]]]}},{"type":"Feature","properties":{"name":"Centro"},"geometry":{"type":"Polygon","coordinates":[[[-48.78872425,-27.74427728],[-48.78872425,-27.63000912],[-48.85728583014973,-27.63000912],[-48.85966641216947,-27.635450094209585],[-48.82320211667466,-27.74427728],[-48.78872425,-27.74427728]]]}},{"type":"Feature","properties":{"name":"Santa Cruz Da Figueira"},"geometry":{"type":"Polygon","coordinates":[[[-48.96577945,-27.74427728],[-48.86458620156878,-27.74427728],[-48.88615042886599,-27.672606291090652],[-48.96577945,-27.714436346586417],[-48.96577945,-27.74427728]]]}},{"type":"Feature","properties":{"name":"Segunda Linha"},"geometry":{"type":"Polygon","coordinates":[[[-48.96577945,-27.63000912],[-48.96577945,-27.714436346586417],[-48.88615042886599,-27.672606291090652],[-48.85966641216947,-27.635450094209585],[-48.85728583014973,-27.63000912],[-48.96577945,-27.63000912]]]}}]}