{"type":"FeatureCollection","features":[{"type":"Feature","properties":{"name":"Linha Barra Do Taquarinha"},"geometry":{"type":"Polygon","coordinates":[[[-53.0053841,-27.0485018],[-53.0053841,-27.0913732],[-52.955120485275984,-27.0913732],[-52.96006461419165,-27.0485018],[-53.0053841,-27.0485018]]]}},{"type":"Feature","properties":{"name":"Linha Gramados"},"geometry":{"type":"Polygon","coordinates":[[[-52.96006461419165,-27.0485018],[-52.955120485275984,-27.0913732],[-52.909801,-27.0913732],[-52.909801,-27.0485018],[-52.96006461419165,-27.0485018]]]}}]}